StoreKey;GeographyKey;StoreManager;StoreType;StoreName;StoreDescription;Status;OpenDate;CloseDate;EntityKey;ZipCode;ZipCodeExtension;StorePhone;StoreFax;AddressLine1;AddressLine2;CloseReason;EmployeeCount;SellingAreaSize;LastRemodelDate;GeoLocation;Geometry;ETLLoadID;LoadDate;UpdateDate
15;678;48;"Store";"Contoso Renton Store";"Contoso Renton Store";"On";24/2/2004 00:00:00;;649;97001;97015;"424-555-0189";"424-555-0189";"Renton,Citycenter";"Renton,Citycenter";"";22;500;17/6/2009 00:00:00;"E6100000010CCA54C1A8A4BE47406ABC7493188C5EC0";"00000000010C6ABC7493188C5EC0CA54C1A8A4BE4740";1;10/7/2009 00:00:00;17/6/2009 00:00:00
17;551;135;"Store";"Contoso Spokane Store";"Contoso Spokane Store";"On";26/3/2004 00:00:00;;651;97001;97017;"984-555-0185";"984-555-0185";"Logan Ave  Shopping mall";"Logan Ave  Shopping mall";"";25;700;17/6/2009 00:00:00;"E6100000010CDC4603780BD44740D122DBF97E5A5DC0";"00000000010CD122DBF97E5A5DC0DC4603780BD44740";1;10/7/2009 00:00:00;17/6/2009 00:00:00
20;824;52;"Store";"Contoso Englewood Store";"Contoso Englewood Store";"On";29/9/2004 00:00:00;;654;87001;87001;"435-555-0113";"435-555-0113";"Cherry Hills Village Shopping mall";"Cherry Hills Village Shopping mall";"";33;560;17/6/2009 00:00:00;"E6100000010C24287E8CB9D343402FDD2406813D5AC0";"00000000010C2FDD2406813D5AC024287E8CB9D34340";1;10/7/2009 00:00:00;17/6/2009 00:00:00
22;571;54;"Store";"Contoso Westminster Store";"Contoso Westminster Store";"On";3/12/2004 00:00:00;;656;87001;87003;"925-555-0114";"925-555-0114";"South Central Shopping mall";"South Central Shopping mall";"";22;500;17/6/2009 00:00:00;"E6100000010CD34D621058C1494076FC17080264C4BF";"00000000010C76FC17080264C4BFD34D621058C14940";1;10/7/2009 00:00:00;17/6/2009 00:00:00
25;839;57;"Store";"Contoso Greeley  No.1 Store";"Contoso Greeley  No.1 Store";"On";16/3/2004 00:00:00;;659;80631;80631;"332-555-0150";"332-555-0150";"W 29th Street, Greeley CityCenter";"W 29th Street, Greeley CityCenter";"";25;700;17/6/2009 00:00:00;"E6100000010C787AA52C43344440068195438B2C5AC0";"00000000010C068195438B2C5AC0787AA52C43344440";1;10/7/2009 00:00:00;17/6/2009 00:00:00
27;859;59;"Store";"Contoso Lafayette Store";"Contoso Lafayette Store";"On";18/5/2004 00:00:00;;661;87001;87008;"113-555-0173";"113-555-0173";"Lafayette Downtown";"Lafayette Downtown";"";19;455;17/6/2009 00:00:00;"E6100000010C40A4DFBE0E34444065AA605452B755C0";"00000000010C65AA605452B755C040A4DFBE0E344440";1;10/7/2009 00:00:00;17/6/2009 00:00:00
30;829;62;"Store";"Contoso Fort Collins Store";"Contoso Fort Collins Store";"On";21/8/2004 00:00:00;;664;87001;87011;"656-555-0119";"656-555-0119";"Old Town West ST";"Old Town West ST";"";22;500;17/6/2009 00:00:00;"E6100000010CF0164850FC484440931804560E455AC0";"00000000010C931804560E455AC0F0164850FC484440";1;10/5/2009 00:00:00;17/6/2009 00:00:00
32;877;63;"Store";"Contoso Milliken Store";"Contoso Milliken Store";"On";23/10/2004 00:00:00;;666;87001;87013;"523-555-0175";"523-555-0175";"Milliken Downtown";"Milliken Downtown";"";25;700;17/6/2009 00:00:00;"E6100000010C7CF2B0506B2A4440F4FDD478E9365AC0";"00000000010CF4FDD478E9365AC07CF2B0506B2A4440";1;10/5/2009 00:00:00;17/6/2009 00:00:00
35;818;65;"Store";"Contoso Denver No.2 Store";"Contoso Denver No.2 Store";"On";3/10/2004 00:00:00;;669;87001;87016;"952-555-0178";"952-555-0178";"West Highland Borden Ave";"West Highland Borden Ave";"";19;455;17/6/2009 00:00:00;"E6100000010C0E2DB29DEFE74340931804560E455AC0";"E6100000010C931804560E455AC00E2DB29DEFE74340";1;10/5/2009 00:00:00;17/6/2009 00:00:00
37;803;66;"Store";"Contoso Boulder Store";"Contoso Boulder Store";"On";28/3/2003 00:00:00;;671;87001;87018;"937-555-0137";"937-555-0137";"Transit Village Broadway";"Transit Village Broadway";"";47;1125;17/6/2009 00:00:00;"E6100000010C19E25817B701444060E5D022DB515AC0";"00000000010C60E5D022DB515AC019E25817B7014440";1;10/5/2009 00:00:00;17/6/2009 00:00:00
40;790;69;"Store";"Contoso Aurora Store";"Contoso Aurora Store";"On";11/6/2003 00:00:00;;674;87001;87021;"794-555-0159";"794-555-0159";"Willow Park Ave";"Willow Park Ave";"";25;700;17/6/2009 00:00:00;"E6100000010CE6AE25E483EE444044FAEDEBC0A551C0";"00000000010C44FAEDEBC0A551C0E6AE25E483EE4440";1;10/5/2009 00:00:00;17/6/2009 00:00:00
42;840;71;"Store";"Contoso Green Bay Store";"Contoso Green Bay Store";"On";3/8/2003 00:00:00;;676;54001;54002;"286-555-0189";"286-555-0189";"Green Bay Downtown";"Green Bay Downtown";"";19;455;17/6/2009 00:00:00;"E6100000010CD122DBF97E424640462575029A0056C0";"00000000010C462575029A0056C0D122DBF97E424640";1;10/5/2009 00:00:00;17/6/2009 00:00:00
45;901;74;"Store";"Contoso Oshkosh Store";"Contoso Oshkosh Store";"On";6/11/2007 00:00:00;;679;54001;54005;"786-555-0144";"786-555-0144";"Oshkosh, WI Broadway";"Oshkosh, WI Broadway";"";22;500;17/6/2009 00:00:00;"E6100000010CDE02098A1F034640174850FC182356C0";"00000000010C174850FC182356C0DE02098A1F034640";1;6/7/2009 00:00:00;17/6/2009 00:00:00
47;878;75;"Store";"Contoso Milwaukee No.1 Store";"Contoso Milwaukee No.1 Store";"On";18/1/2004 00:00:00;;681;54001;54007;"818-555-0192";"818-555-0192";"Havenwoods St";"Havenwoods St";"";25;700;17/6/2009 00:00:00;"E6100000010CF5B9DA8AFD854540910F7A36ABFA55C0";"00000000010C910F7A36ABFA55C0F5B9DA8AFD854540";1;6/7/2009 00:00:00;17/6/2009 00:00:00
50;949;76;"Store";"Contoso Waukesha No.1 Store";"Contoso Waukesha No.1 Store";"On";19/4/2004 00:00:00;;684;54001;54010;"299-555-0113";"299-555-0113";"Waukesha,  Water St";"Waukesha,  Water St";"";19;455;17/6/2009 00:00:00;"E6100000010C1973D712F2814540A5BDC117260F56C0";"00000000010CA5BDC117260F56C01973D712F2814540";1;6/7/2009 00:00:00;17/6/2009 00:00:00
52;806;137;"Store";"Contoso Burlington Store";"Contoso Burlington Store";"On";17/6/2004 00:00:00;;686;54001;54012;"639-555-0164";"639-555-0164";"Burlington, WI St shopping mall";"Burlington, WI St shopping mall";"";47;1125;17/6/2009 00:00:00;"E6100000010C228E75711B3D4640CC7F48BF7D4D52C0";"00000000010CCC7F48BF7D4D52C0228E75711B3D4640";1;10/7/2009 00:00:00;17/6/2009 00:00:00
55;835;77;"Store";"Contoso Germantown Store";"Contoso Germantown Store";"On";2/9/2004 00:00:00;;689;54001;54015;"712-555-0119";"712-555-0119";"Germantown, DEI St Shopping mall";"Germantown, DEI St Shopping mall";"";25;700;17/6/2009 00:00:00;"E6100000010C105839B4C84E4340E4839ECDAA6F53C0";"00000000010CE4839ECDAA6F53C0105839B4C84E4340";1;10/7/2009 00:00:00;17/6/2009 00:00:00
57;913;79;"Store";"Contoso Port Washington Store";"Contoso Port Washington Store";"On";25/11/2004 00:00:00;;691;54001;54017;"910-555-0116";"910-555-0116";"Port Washington, WIMI St Shopping mall";"Port Washington, WIMI St Shopping mall";"";26;680;17/6/2009 00:00:00;"E6100000010C7D3F355EBA69444088855AD3BC6B52C0";"00000000010C88855AD3BC6B52C07D3F355EBA694440";1;10/7/2009 00:00:00;17/6/2009 00:00:00
60;870;82;"Store";"Contoso Madison Store";"Contoso Madison Store";"On";28/2/2004 00:00:00;;694;54001;54020;"499-555-0125";"499-555-0125";"Dudgeon-Monroe Shopping mall";"Dudgeon-Monroe Shopping mall";"";47;1125;17/6/2009 00:00:00;"E6100000010C711B0DE02D884540A857CA32C45956C0";"00000000010CA857CA32C45956C0711B0DE02D884540";1;10/7/2009 00:00:00;17/6/2009 00:00:00
65;918;87;"Store";"Contoso Racine No.2 Store";"Contoso Racine No.2 Store";"On";2/7/2009 00:00:00;;699;54025;54025;"518-555-0199";"518-555-0199";"Racine, Big Shopping mall";"Racine, Big Shopping mall";"";19;455;17/6/2009 00:00:00;"E6100000010C780B24287E5C4540B5A679C729F255C0";"E6100000010CB5A679C729F255C0780B24287E5C4540";1;10/7/2009 00:00:00;17/6/2009 00:00:00
67;849;88;"Store";"Contoso Houston No.2 Store";"Contoso Houston No.2 Store";"On";11/3/2004 00:00:00;;701;70001;77010;"434-555-0133";"434-555-0133";"Texas Houston Ryon St";"Texas Houston Ryon St";"";47;1125;17/6/2009 00:00:00;"E6100000010C96B20C71AC9B3D402C6519E258CF57C0";"E6100000010C2C6519E258CF57C096B20C71AC9B3D40";1;10/5/2009 00:00:00;17/6/2009 00:00:00
70;876;89;"Store";"Contoso Midland Store";"Contoso Midland Store";"On";12/9/2003 00:00:00;;704;70001;77020;"611-555-0116";"611-555-0116";"West Way St";"West Way St";"";25;700;17/6/2009 00:00:00;"E6100000010CF2D24D6210004040E5D022DBF98659C0";"00000000010CE5D022DBF98659C0F2D24D6210004040";1;10/5/2009 00:00:00;17/6/2009 00:00:00
72;879;91;"Store";"Contoso Minden Store";"Contoso Minden Store";"On";6/11/2004 00:00:00;;706;70001;77020;"612-555-0171";"612-555-0171";"Minden, LA  Downtown";"Minden, LA  Downtown";"";26;680;17/6/2009 00:00:00;"E6100000010C93A9825149254A40F12900C633D82140";"00000000010CF12900C633D8214093A9825149254A40";1;10/5/2009 00:00:00;17/6/2009 00:00:00
75;866;94;"Store";"Contoso Longview Store";"Contoso Longview Store";"On";19/2/2004 00:00:00;;709;70001;77019;"309-555-0129";"309-555-0129";"Longview, SDallas St  Shopping mall";"Longview, SDallas St  Shopping mall";"";47;1125;17/6/2009 00:00:00;"E6100000010CE3A59BC420C0494033349E08E23CC0BF";"00000000010C33349E08E23CC0BFE3A59BC420C04940";1;10/5/2009 00:00:00;17/6/2009 00:00:00
77;897;96;"Store";"Contoso Orange Store";"Contoso Orange Store";"On";21/2/2004 00:00:00;;711;70001;77019;"999-555-0155";"999-555-0155";"Orange Citycenter Shopping mall";"Orange Citycenter Shopping mall";"";17;462;17/6/2009 00:00:00;"E6100000010CEF38454772193E401361C3D32B7157C0";"00000000010C1361C3D32B7157C0EF38454772193E40";1;10/5/2009 00:00:00;17/6/2009 00:00:00
80;858;98;"Store";"Contoso La Porte Store";"Contoso La Porte Store";"On";18/2/2004 00:00:00;;714;70001;77025;"420-555-0173";"420-555-0173";"La Porte, TXS Shopping mall";"La Porte, TXS Shopping mall";"";26;680;17/6/2009 00:00:00;"E6100000010C26E4839ECDAA3D40E5D022DBF9C257C0";"00000000010CE5D022DBF9C257C026E4839ECDAA3D40";1;10/5/2009 00:00:00;17/6/2009 00:00:00
82;939;100;"Store";"Contoso Texas City Store";"Contoso Texas City Store";"On";20/4/2004 00:00:00;;716;70001;77002;"815-555-0138";"815-555-0138";"Texas City, TX St Shopping mall";"Texas City, TX St Shopping mall";"";33;560;17/6/2009 00:00:00;"E6100000010C2575029A086B3D4027C286A757BE57C0";"00000000010C27C286A757BE57C02575029A086B3D40";1;10/5/2009 00:00:00;17/6/2009 00:00:00
85;933;103;"Store";"Contoso Spring Store";"Contoso Spring Store";"On";23/7/2004 00:00:00;;719;70001;77004;"153-555-0186";"153-555-0186";"Arthur Bayer Park St";"Arthur Bayer Park St";"";17;462;17/6/2009 00:00:00;"E6100000010C5305A3923A113E40B0726891EDD857C0";"00000000010CB0726891EDD857C05305A3923A113E40";1;10/5/2009 00:00:00;17/6/2009 00:00:00
87;925;105;"Store";"Contoso San Antonio Store";"Contoso San Antonio Store";"On";25/8/2004 00:00:00;;721;70001;77023;"970-555-0118";"970-555-0118";"City North Region Downtown";"City North Region Downtown";"";26;680;17/6/2009 00:00:00;"E6100000010CAC8BDB68006F3D406B2BF697DD9F58C0";"00000000010C6B2BF697DD9F58C0AC8BDB68006F3D40";1;10/5/2009 00:00:00;17/6/2009 00:00:00
90;815;108;"Store";"Contoso Dallas Store";"Contoso Dallas Store";"On";2/12/2008 00:00:00;;724;75201;75202;"986-555-0177";"986-555-0177";"Dallas Citycenter Shopping mall";"Dallas Citycenter Shopping mall";"";47;1125;17/6/2009 00:00:00;"E6100000010C2FDD24068165404065AA6054523358C0";"00000000010C65AA6054523358C02FDD240681654040";1;10/5/2009 00:00:00;17/6/2009 00:00:00
92;845;110;"Store";"Contoso Hillsboro Store";"Contoso Hillsboro Store";"On";30/1/2003 00:00:00;;726;75201;75204;"818-555-0128";"818-555-0128";"Hillsboro, TX Ward";"Hillsboro, TX Ward";"";17;460;17/6/2009 00:00:00;"E6100000010C5C2041F163C446406ABC749318BC5EC0";"00000000010C6ABC749318BC5EC05C2041F163C44640";1;10/5/2009 00:00:00;17/6/2009 00:00:00
95;819;113;"Store";"Contoso Desoto Store";"Contoso Desoto Store";"On";31/3/2003 00:00:00;;729;75201;75207;"935-555-0116";"935-555-0116";"Desoto, TX Shopping mall";"Desoto, TX Shopping mall";"";26;680;17/6/2009 00:00:00;"E6100000010CC9E53FA4DFD64340BA490C022B3F5AC0";"00000000010CBA490C022B3F5AC0C9E53FA4DFD64340";1;6/7/2009 00:00:00;17/6/2009 00:00:00
97;863;115;"Store";"Contoso Lewisville Store";"Contoso Lewisville Store";"On";2/4/2003 00:00:00;;731;75201;75209;"920-555-0177";"920-555-0177";"Lewisville, Edeg ST Shopping mall";"Lewisville, Edeg ST Shopping mall";"";33;560;17/6/2009 00:00:00;"E6100000010CA1F831E6AE854040575BB1BFEC3E58C0";"00000000010C575BB1BFEC3E58C0A1F831E6AE854040";1;6/7/2009 00:00:00;17/6/2009 00:00:00
100;910;118;"Store";"Contoso Plano Store";"Contoso Plano Store";"On";5/7/2003 00:00:00;;734;75201;75212;"148-555-0145";"148-555-0145";"City North St";"City North St";"";17;462;17/6/2009 00:00:00;"E6100000010C39B4C876BE8740408CDB68006F3158C0";"00000000010C8CDB68006F3158C039B4C876BE874040";1;6/7/2009 00:00:00;17/6/2009 00:00:00
102;875;119;"Store";"Contoso Miami No.2 Store";"Contoso Miami No.2 Store";"On";7/9/2003 00:00:00;;736;33128;33136;"391-555-0138";"391-555-0138";"NW 8th St";"NW 8th St";"";25;700;17/6/2009 00:00:00;"E6100000010C832F4CA60AC63940158C4AEA040C54C0";"E6100000010C158C4AEA040C54C0832F4CA60AC63940";1;10/7/2009 00:00:00;17/6/2009 00:00:00
105;937;121;"Store";"Contoso Tallahassee No.2 Store";"Contoso Tallahassee No.2 Store";"On";29/11/2003 00:00:00;;739;32301;32303;"768-555-0123";"768-555-0123";"Thomasville Rd";"Thomasville Rd";"";33;560;17/6/2009 00:00:00;"E6100000010C1895D40968723E4087A757CA321455C0";"E6100000010C87A757CA321455C01895D40968723E40";1;10/7/2009 00:00:00;17/6/2009 00:00:00
107;926;123;"Store";"Contoso Sebring Store";"Contoso Sebring Store";"On";12/2/2003 00:00:00;;741;33870;33871;"166-555-0159";"166-555-0159";"601-669 N Ping St";"601-669 N Ping St";"";22;500;17/6/2009 00:00:00;"E6100000010C0000000000803B40DC68006F815C54C0";"00000000010CDC68006F815C54C00000000000803B40";1;10/7/2009 00:00:00;17/6/2009 00:00:00
110;899;126;"Store";"Contoso Orlando Store";"Contoso Orlando Store";"On";15/2/2003 00:00:00;;744;32803;32803;"476-555-0119";"476-555-0119";"1400-1598 FL-50 St";"1400-1598 FL-50 St";"";25;700;17/6/2009 00:00:00;"E6100000010C022B8716D98E3C40EC51B81E855754C0";"00000000010CEC51B81E855754C0022B8716D98E3C40";1;10/12/2008 00:00:00;17/6/2009 00:00:00
115;890;131;"Store";"Contoso New York No.1 Store";"Contoso New York No.1 Store";"On";1/3/2004 00:00:00;;749;10018;10018;"571-555-0179";"571-555-0179";"W 40th St";"W 40th St";"";22;500;17/6/2009 00:00:00;"E6100000010CB7627FD93D614440F31FD26F5F7F52C0";"00000000010CF31FD26F5F7F52C0B7627FD93D614440";1;10/12/2008 00:00:00;17/6/2009 00:00:00
117;890;131;"Store";"Contoso New York No.2 Store";"Contoso New York No.2 Store";"On";15/5/2005 00:00:00;;751;10018;10018;"540-555-0191";"540-555-0191";"Kips Bay St";"Kips Bay St";"";25;700;17/6/2009 00:00:00;"E6100000010C32772D211F5C4440D6C56D34807F52C0";"E6100000010CD6C56D34807F52C032772D211F5C4440";1;10/12/2008 00:00:00;17/6/2009 00:00:00
120;911;139;"Store";"Contoso Plattsburgh Store";"Contoso Plattsburgh Store";"On";18/8/2004 00:00:00;;754;12901;12901;"727-555-0112";"727-555-0112";"Brinkerhoff St";"Brinkerhoff St";"";33;560;17/6/2009 00:00:00;"E6100000010CE2E995B20C594640D34D6210585D52C0";"00000000010CD34D6210585D52C0E2E995B20C594640";1;10/12/2008 00:00:00;17/6/2009 00:00:00
122;902;141;"Store";"Contoso Oswego Store";"Contoso Oswego Store";"On";20/10/2004 00:00:00;;756;13126;13126;"785-555-0110";"785-555-0110";"East River St";"East River St";"";22;500;17/6/2009 00:00:00;"E6100000010CE02D90A0F8B94540956588635D2053C0";"00000000010C956588635D2053C0E02D90A0F8B94540";1;10/12/2008 00:00:00;17/6/2009 00:00:00
125;916;143;"Store";"Contoso Queens Store";"Contoso Queens Store";"On";23/1/2006 00:00:00;;759;11432;11432;"150-555-0194";"150-555-0194";"St Johns Downtown";"St Johns Downtown";"";25;700;17/6/2009 00:00:00;"E6100000010CCA32C4B12E5E444057EC2FBB277352C0";"00000000010C57EC2FBB277352C0CA32C4B12E5E4440";1;10/12/2008 00:00:00;17/6/2009 00:00:00
127;912;145;"Store";"Contoso Poestenkill Store";"Contoso Poestenkill Store";"On";25/1/2004 00:00:00;;761;12140;12140;"712-555-0113";"712-555-0113";"Rensselaer County St";"Rensselaer County St";"";19;455;17/6/2009 00:00:00;"E6100000010C386744696F5845405C8FC2F5286452C0";"00000000010C5C8FC2F5286452C0386744696F584540";1;10/12/2008 00:00:00;17/6/2009 00:00:00
130;891;147;"Store";"Contoso Newark No.1 Store";"Contoso Newark No.1 Store";"On";28/8/2004 00:00:00;;764;7102;7102;"119-555-0192";"119-555-0192";"Halsey St";"Halsey St";"";22;500;17/6/2009 00:00:00;"E6100000010CCAC342AD695E4440B3EA73B5158B52C0";"00000000010CB3EA73B5158B52C0CAC342AD695E4440";1;10/12/2008 00:00:00;17/6/2009 00:00:00
132;854;148;"Store";"Contoso Jersey City Store";"Contoso Jersey City Store";"On";2/11/2004 00:00:00;;766;7304;7304;"205-555-0132";"205-555-0132";"76 Boyd Ave St";"76 Boyd Ave St";"";25;700;17/6/2009 00:00:00;"E6100000010C23DBF97E6A5C4440E17A14AE478552C0";"00000000010CE17A14AE478552C023DBF97E6A5C4440";1;6/7/2009 00:00:00;17/6/2009 00:00:00
135;820;151;"Store";"Contoso East Orange Store";"Contoso East Orange Store";"On";15/2/2004 00:00:00;;769;7017;7017;"935-555-0199";"935-555-0199";"N Arlington Ave";"N Arlington Ave";"";19;455;17/6/2009 00:00:00;"E6100000010CC3F5285C8F62444005C58F31778D52C0";"00000000010C05C58F31778D52C0C3F5285C8F624440";1;10/7/2009 00:00:00;17/6/2009 00:00:00
137;797;153;"Store";"Contoso Bayonne Store";"Contoso Bayonne Store";"On";17/4/2004 00:00:00;;771;7002;7002;"500-555-0159";"500-555-0159";"E 31st St";"E 31st St";"";47;1125;17/6/2009 00:00:00;"E6100000010CCA32C4B12E564440B3EA73B5158752C0";"00000000010CB3EA73B5158752C0CA32C4B12E564440";1;10/7/2009 00:00:00;17/6/2009 00:00:00
140;842;156;"Store";"Contoso Hackensack Store";"Contoso Hackensack Store";"On";20/7/2004 00:00:00;;774;7601;7601;"352-555-0138";"352-555-0138";"237 State St";"237 State St";"";25;700;17/6/2009 00:00:00;"E6100000010C44FAEDEBC0714440C1A8A44E408352C0";"00000000010CC1A8A44E408352C044FAEDEBC0714440";1;10/7/2009 00:00:00;17/6/2009 00:00:00
142;880;158;"Store";"Contoso Montclair Store";"Contoso Montclair Store";"On";22/9/2004 00:00:00;;776;7042;7042;"955-555-0169";"955-555-0169";"Valley St";"Valley St";"";19;455;17/6/2009 00:00:00;"E6100000010C8BFD65F7E4694440A857CA32C48D52C0";"00000000010CA857CA32C48D52C08BFD65F7E4694440";1;10/12/2008 00:00:00;17/6/2009 00:00:00
145;808;161;"Store";"Contoso Cape May Store";"Contoso Cape May Store";"On";2/12/2004 00:00:00;;779;8204;8204;"615-555-0110";"615-555-0110";"Delaware Ave St";"Delaware Ave St";"";22;500;17/6/2009 00:00:00;"E6100000010C71AC8BDB687843408BFD65F7E4B952C0";"00000000010C8BFD65F7E4B952C071AC8BDB68784340";1;10/12/2008 00:00:00;17/6/2009 00:00:00
147;952;163;"Store";"Contoso Worcester No.1 Store";"Contoso Worcester No.1 Store";"On";17/10/2004 00:00:00;;781;1608;1608;"441-555-0195";"441-555-0195";"99 Central St";"99 Central St";"";25;700;17/6/2009 00:00:00;"E6100000010C33C4B12E6E234540D734EF3845F351C0";"00000000010CD734EF3845F351C033C4B12E6E234540";1;10/12/2008 00:00:00;17/6/2009 00:00:00
150;789;165;"Store";"Contoso Attleboro Store";"Contoso Attleboro Store";"On";20/2/2004 00:00:00;;784;2703;2703;"589-555-0147";"589-555-0147";"Thacher Downtown";"Thacher Downtown";"";19;455;17/6/2009 00:00:00;"E6100000010C1CEBE2361AF84440A69BC420B0D251C0";"00000000010CA69BC420B0D251C01CEBE2361AF84440";1;10/12/2008 00:00:00;17/6/2009 00:00:00
152;861;167;"Store";"Contoso Leominster Store";"Contoso Leominster Store";"On";22/2/2004 00:00:00;;786;1453;1453;"678-555-0110";"678-555-0110";"101 Union St Shopping mall";"101 Union St Shopping mall";"";47;1125;17/6/2009 00:00:00;"E6100000010C6D567DAEB64245405305A3923AF151C0";"00000000010C5305A3923AF151C06D567DAEB6424540";1;10/12/2008 00:00:00;17/6/2009 00:00:00
155;832;170;"Store";"Contoso Framingham Store";"Contoso Framingham Store";"On";19/3/2004 00:00:00;;789;1701;1701;"182-555-0134";"182-555-0134";"29 Woodlan St";"29 Woodlan St";"";25;700;17/6/2009 00:00:00;"E6100000010C4772F90FE9274540EB73B515FBDB51C0";"00000000010CEB73B515FBDB51C04772F90FE9274540";1;6/7/2009 00:00:00;17/6/2009 00:00:00
157;931;172;"Store";"Contoso Somerville Store";"Contoso Somerville Store";"On";21/5/2004 00:00:00;;791;2145;2145;"587-555-0114";"587-555-0114";"Pembroke St";"Pembroke St";"";26;680;17/6/2009 00:00:00;"E6100000010CAD69DE718ACE47402FDD240681955EC0";"00000000010C2FDD240681955EC0AD69DE718ACE4740";1;6/7/2009 00:00:00;17/6/2009 00:00:00
160;895;175;"Store";"Contoso Northampton Store";"Contoso Northampton Store";"On";24/8/2004 00:00:00;;794;1062;1062;"806-555-0136";"806-555-0136";"Florence Rd Shopping mall";"Florence Rd Shopping mall";"";47;1125;17/6/2009 00:00:00;"E6100000010C8A1F63EE5A2A4540FA7E6ABC742B52C0";"00000000010CFA7E6ABC742B52C08A1F63EE5A2A4540";1;6/7/2009 00:00:00;17/6/2009 00:00:00
165;883;180;"Store";"Contoso Nantucket Store";"Contoso Nantucket Store";"On";6/11/2004 00:00:00;;799;2554;2554;"810-555-0178";"810-555-0178";"8 Washington St";"8 Washington St";"";19;455;17/6/2009 00:00:00;"E6100000010C07F0164850A4444003098A1F638651C0";"00000000010C03098A1F638651C007F0164850A44440";1;10/7/2009 00:00:00;17/6/2009 00:00:00
167;796;182;"Store";"Contoso Bar Harbor Store";"Contoso Bar Harbor Store";"On";18/2/2004 00:00:00;;801;4609;4609;"746-555-0164";"746-555-0164";"Ledgelawn Ave";"Ledgelawn Ave";"";47;1125;17/6/2009 00:00:00;"E6100000010C0A68226C78324640E9482EFF210D51C0";"00000000010CE9482EFF210D51C00A68226C78324640";1;10/7/2009 00:00:00;17/6/2009 00:00:00
170;900;185;"Store";"Contoso Orono Store";"Contoso Orono Store";"On";21/2/2004 00:00:00;;804;4473;4473;"309-555-0170";"309-555-0170";"Pleasant St";"Pleasant St";"";25;700;17/6/2009 00:00:00;"E6100000010C1AC05B2041714640EC2FBB270F2B51C0";"00000000010CEC2FBB270F2B51C01AC05B2041714640";1;10/7/2009 00:00:00;17/6/2009 00:00:00
172;843;187;"Store";"Contoso Hartford Store";"Contoso Hartford Store";"On";17/1/2004 00:00:00;;806;6103;6103;"117-555-0185";"117-555-0185";"Asylum St Shopping mall";"Asylum St Shopping mall";"";26;680;17/6/2009 00:00:00;"E6100000010C0AD7A3703DE24440B3EA73B5152B52C0";"00000000010CB3EA73B5152B52C00AD7A3703DE24440";1;10/7/2009 00:00:00;17/6/2009 00:00:00
175;896;190;"Store";"Contoso Old Saybrook Store";"Contoso Old Saybrook Store";"On";20/4/2004 00:00:00;;809;6475;6475;"100-555-0174";"100-555-0174";"18 W King Rd";"18 W King Rd";"";47;1125;17/6/2009 00:00:00;"E6100000010C3D0AD7A370A5444030BB270F0B1952C0";"00000000010C30BB270F0B1952C03D0AD7A370A54440";1;10/7/2009 00:00:00;17/6/2009 00:00:00
177;888;192;"Store";"Contoso New Haven Store";"Contoso New Haven Store";"On";22/6/2004 00:00:00;;811;6511;6511;"118-555-0177";"118-555-0177";"Lynwood PI Downtown";"Lynwood PI Downtown";"";17;462;17/6/2009 00:00:00;"E6100000010C728A8EE4F2A74440A4DFBE0E9C3B52C0";"00000000010CA4DFBE0E9C3B52C0728A8EE4F2A74440";1;10/5/2009 00:00:00;17/6/2009 00:00:00
180;892;195;"Store";"Contoso Norfolk Store";"Contoso Norfolk Store";"On";25/8/2004 00:00:00;;814;23504;23504;"712-555-0170";"712-555-0170";"Wide St Shopping mall";"Wide St Shopping mall";"";26;680;17/6/2009 00:00:00;"E6100000010CBC96900F7A6E42402041F163CC1153C0";"00000000010C2041F163CC1153C0BC96900F7A6E4240";1;10/5/2009 00:00:00;17/6/2009 00:00:00
182;951;197;"Store";"Contoso Winchester Store";"Contoso Winchester Store";"On";27/11/2004 00:00:00;;816;22601;22601;"654-555-0177";"654-555-0177";"Handley St Shopping mall";"Handley St Shopping mall";"";33;560;17/6/2009 00:00:00;"E6100000010CD712F241CF964340E5D022DBF98A53C0";"00000000010CE5D022DBF98A53C0D712F241CF964340";1;10/5/2009 00:00:00;17/6/2009 00:00:00
185;921;199;"Store";"Contoso Roanoke Store";"Contoso Roanoke Store";"On";17/10/2004 00:00:00;;819;24011;24011;"559-555-0175";"559-555-0175";"Salem Ave SE StShopping mall";"Salem Ave SE StShopping mall";"";17;462;17/6/2009 00:00:00;"E6100000010CDE9387855AA34240B1506B9A77FC53C0";"00000000010CB1506B9A77FC53C0DE9387855AA34240";1;10/5/2009 00:00:00;17/6/2009 00:00:00
187;833;201;"Store";"Contoso Fredericksburg Store";"Contoso Fredericksburg Store";"On";19/2/2004 00:00:00;;821;22401;22401;"319-555-0126";"319-555-0126";"Beverly St Shopping mall";"Beverly St Shopping mall";"";26;680;17/6/2009 00:00:00;"E6100000010CAE47E17A14264340174850FC185F53C0";"00000000010C174850FC185F53C0AE47E17A14264340";1;10/5/2009 00:00:00;17/6/2009 00:00:00
190;810;204;"Store";"Contoso Charleston Store";"Contoso Charleston Store";"On";22/2/2004 00:00:00;;824;29406;29406;"552-555-0111";"552-555-0111";"Rockingham St Shopping mall";"Rockingham St Shopping mall";"";47;1125;17/6/2009 00:00:00;"E6100000010C58CA32C4B166404087A757CA32FC53C0";"00000000010C87A757CA32FC53C058CA32C4B1664040";1;10/7/2009 00:00:00;17/6/2009 00:00:00
192;794;206;"Store";"Contoso Baltimore Store";"Contoso Baltimore Store";"On";18/2/2004 00:00:00;;826;21201;21201;"508-555-0129";"508-555-0129";"Pleasant St";"Pleasant St";"";17;460;17/6/2009 00:00:00;"E6100000010C73D712F241A7434017D9CEF7532753C0";"00000000010C17D9CEF7532753C073D712F241A74340";1;6/7/2009 00:00:00;17/6/2009 00:00:00
195;915;209;"Store";"Contoso Queen Anne's County Store";"Contoso Queen Anne's County Store";"On";21/5/2004 00:00:00;;829;21617;21617;"106-555-0120";"106-555-0120";"Tilghman Neck St Shopping mall";"Tilghman Neck St Shopping mall";"";26;680;17/6/2009 00:00:00;"E6100000010C4D158C4AEA84434005A3923A010953C0";"00000000010C05A3923A010953C04D158C4AEA844340";1;6/7/2009 00:00:00;17/6/2009 00:00:00
197;792;211;"Store";"Contoso Back River Store";"Contoso Back River Store";"On";23/7/2004 00:00:00;;831;21219;21219;"955-555-0131";"955-555-0131";"Back River St Shopping mall";"Back River St Shopping mall";"";33;560;17/6/2009 00:00:00;"E6100000010C492EFF21FDA643402B8716D9CE1F53C0";"00000000010C2B8716D9CE1F53C0492EFF21FDA64340";1;6/7/2009 00:00:00;17/6/2009 00:00:00
202;748;220;"Store";"Contoso Edinburgh Store";"Contoso Edinburgh Store";"On";2/8/2004 00:00:00;;834;;;"296-555-0121";"296-555-0121";"Princes St Edinburgh, Midlothian Shopping mall, United Kingdom";"Princes St Edinburgh, Midlothian Shopping mall, United Kingdom";"";25;700;17/6/2009 00:00:00;"E6100000010C51DA1B7C61FA4B40DAACFA5C6D8509C0";"00000000010CDAACFA5C6D8509C051DA1B7C61FA4B40";1;10/7/2009 00:00:00;17/6/2009 00:00:00
205;742;223;"Store";"Contoso Carlisle Store";"Contoso Carlisle Store";"On";18/5/2004 00:00:00;;837;;;"165-555-0113";"165-555-0113";"Citycenter  Botchergate Carlisle, UK";"Citycenter  Botchergate Carlisle, UK";"";23;680;17/6/2009 00:00:00;"E6100000010C3411363CBD724B404356B77A4E7A07C0";"00000000010C4356B77A4E7A07C03411363CBD724B40";1;10/7/2009 00:00:00;17/6/2009 00:00:00
207;755;225;"Store";"Contoso Lancashire Store";"Contoso Lancashire Store";"On";20/7/2004 00:00:00;;839;;;"393-555-0186";"393-555-0186";"Rochdale Rd Todmorden, Lancashire Shopping mall, United Kingdom";"Rochdale Rd Todmorden, Lancashire Shopping mall, United Kingdom";"";36;680;17/6/2009 00:00:00;"E6100000010C7E1D386744F14A40132C0E677EB505C0";"00000000010C132C0E677EB505C07E1D386744F14A40";1;10/7/2009 00:00:00;17/6/2009 00:00:00
210;743;228;"Store";"Contoso Cheshire Store";"Contoso Cheshire Store";"On";23/4/2004 00:00:00;;842;;;"663-555-0172";"663-555-0172";"Market St  Marple, Stockport, Cheshire Citycenter, United Kingdom";"Market St  Marple, Stockport, Cheshire Citycenter, United Kingdom";"";;680;17/6/2009 00:00:00;"E6100000010CF2D24D6210D847403F355EBA495C5DC0";"00000000010C3F355EBA495C5DC0F2D24D6210D84740";1;10/7/2009 00:00:00;17/6/2009 00:00:00
212;651;230;"Store";"Contoso Liverpool Store";"Contoso Liverpool Store";"On";2/3/2004 00:00:00;;844;;;"313-555-0196";"313-555-0196";"Leinster Rd Liverpool, Merseyside Citycenter, UK";"Leinster Rd Liverpool, Merseyside Citycenter, UK";"";64;680;17/6/2009 00:00:00;"E6100000010CDBF97E6ABCB44A40BA2C26361FD707C0";"00000000010CBA2C26361FD707C0DBF97E6ABCB44A40";1;10/7/2009 00:00:00;17/6/2009 00:00:00
215;529;233;"Store";"Contoso Paris Store";"Contoso Paris Store";"On";28/3/2004 00:00:00;;847;75001;75001;"139-555-0131";"139-555-0131";"Rue de Rivoli Citycenter  Paris, France";"Rue de Rivoli Citycenter  Paris, France";"";12;680;17/6/2009 00:00:00;"E6100000010C832F4CA60A6E4840D0D03FC1C5CA0240";"00000000010CD0D03FC1C5CA0240832F4CA60A6E4840";1;10/5/2009 00:00:00;17/6/2009 00:00:00
217;759;235;"Store";"Contoso Lyon Store";"Contoso Lyon Store";"On";30/8/2004 00:00:00;;855;69002;69002;"207-555-0192";"207-555-0192";"Citycenter Lyon, France";"Citycenter Lyon, France";"";15;680;17/6/2009 00:00:00;"E6100000010CFCA9F1D24DE24640F7065F984C551340";"00000000010CF7065F984C551340FCA9F1D24DE24640";1;10/5/2009 00:00:00;17/6/2009 00:00:00
220;766;238;"Store";"Contoso Nantes Store";"Contoso Nantes Store";"On";3/8/2004 00:00:00;;858;44000;44000;"991-555-0184";"991-555-0184";"Citycenter Nantes, France";"Citycenter Nantes, France";"";11;680;17/6/2009 00:00:00;"E6100000010CCE1951DA1B9C474021B0726891EDF8BF";"00000000010C21B0726891EDF8BFCE1951DA1B9C4740";1;10/5/2009 00:00:00;17/6/2009 00:00:00
222;771;240;"Store";"Contoso Roma Store";"Contoso Roma Store";"On";5/10/2007 00:00:00;;860;192;192;"927-555-0150";"927-555-0150";"";"";"";43;490;17/6/2009 00:00:00;"E6100000010C09F9A067B3F244403333333333F32840";"00000000010C3333333333F3284009F9A067B3F24440";1;10/5/2009 00:00:00;17/6/2009 00:00:00
225;776;243;"Store";"Contoso Torino Store";"Contoso Torino Store";"On";18/3/2004 00:00:00;;863;10141;10141;"931-555-0118";"931-555-0118";"";"";"";24;500;17/6/2009 00:00:00;"E6100000010CC520B07268894640736891ED7CBF1E40";"00000000010C736891ED7CBF1E40C520B07268894640";1;10/5/2009 00:00:00;17/6/2009 00:00:00
227;884;245;"Store";"Contoso Naples Store";"Contoso Naples Store";"On";2/3/2004 00:00:00;;865;20124;20124;"492-555-0174";"492-555-0174";"Downtown Naples, Florida";"Downtown Naples, Florida";"";13;500;17/6/2009 00:00:00;"E6100000010C3AADDBA0F67254C0ED4960730E263A40";"00000000010CED4960730E263A403AADDBA0F67254C0";1;10/5/2009 00:00:00;17/6/2009 00:00:00
230;754;247;"Store";"Contoso koln No.2 Store";"Contoso Cologne Store";"On";15/5/2004 00:00:00;;868;50672;50672;"916-555-0165";"916-555-0165";"Downtown, Koln, Germany";"Downtown, Koln, Germany";"";25;500;17/6/2009 00:00:00;"E6100000010CB7627FD93D7949401092054CE0D61B40";"00000000010C1092054CE0D61B40B7627FD93D794940";1;10/5/2009 00:00:00;17/6/2009 00:00:00
232;754;249;"Store";"Contoso koln No.1 Store";"Contoso koln Store";"On";29/7/2004 00:00:00;;870;50823;50823;"583-555-0182";"583-555-0182";"Citycenter Koln, Germany";"Citycenter Koln, Germany";"";35;500;17/6/2009 00:00:00;"E6100000010C371AC05B207949401AC05B2041D11B40";"00000000010C1AC05B2041D11B40371AC05B20794940";1;10/5/2009 00:00:00;17/6/2009 00:00:00
235;770;252;"Store";"Contoso Ramstein Store";"Contoso Ramstein Store";"On";13/8/2004 00:00:00;;873;66877;66877;"555-555-0113";"555-555-0113";"Citycenter Shopping mall Ramstein-Miesenbach, Germany";"Citycenter Shopping mall Ramstein-Miesenbach, Germany";"";15;500;17/6/2009 00:00:00;"E6100000010C45D8F0F44AB94840B9AAECBB22381E40";"00000000010CB9AAECBB22381E4045D8F0F44AB94840";1;10/5/2009 00:00:00;17/6/2009 00:00:00
237;750;254;"Store";"Contoso Giebelstadt Store";"Contoso Giebelstadt Store";"On";26/12/2004 00:00:00;;875;97232;97232;"264-555-0150";"264-555-0150";"Citycenter, Giebelstadt, Germany";"Citycenter, Giebelstadt, Germany";"";15;500;17/6/2009 00:00:00;"E6100000010CEBE2361AC0D34840FA9B508880E32340";"00000000010CFA9B508880E32340EBE2361AC0D34840";1;10/5/2009 00:00:00;17/6/2009 00:00:00
240;736;257;"Store";"Contoso Amsterdam Store";"Contoso Amsterdam Store";"On";29/3/2004 00:00:00;;878;;;"230-555-0144";"230-555-0144";"Citycenter Shopping mall, Amsterdam (Noord-Holland), Netherlands";"Citycenter Shopping mall, Amsterdam (Noord-Holland), Netherlands";"";26;680;17/6/2009 00:00:00;"E6100000010CFED478E926314A40718FA50F5D901340";"00000000010C718FA50F5D901340FED478E926314A40";1;10/5/2009 00:00:00;17/6/2009 00:00:00
242;773;259;"Store";"Contoso Stockholm Store";"Contoso Stockholm Store";"On";31/5/2004 00:00:00;;880;11145;11145;"208-555-0114";"208-555-0114";"Birger Jarlsg Shopping mall, Sweden";"Birger Jarlsg Shopping mall, Sweden";"";33;680;17/6/2009 00:00:00;"E6100000010CD0D556EC2FAB4D403B014D840D0F3240";"00000000010C3B014D840D0F3240D0D556EC2FAB4D40";1;6/7/2009 00:00:00;17/6/2009 00:00:00
245;741;262;"Store";"Contoso Bucharest Store";"Contoso Bucharest Store";"On";19/5/2004 00:00:00;;883;30583;30583;"163-555-0147";"163-555-0147";"Nan Street Bucharest, Romania";"Nan Street Bucharest, Romania";"";25;680;17/6/2009 00:00:00;"E6100000010C1B2FDD240639464096438B6CE71B3A40";"00000000010C96438B6CE71B3A401B2FDD2406394640";1;6/7/2009 00:00:00;17/6/2009 00:00:00
247;780;264;"Store";"Contoso Warsaw Store";"Contoso Warsaw Store";"On";4/9/2004 00:00:00;;885;;;"680-555-0118";"680-555-0118";"Citycenter Warszawa, Poland";"Citycenter Warszawa, Poland";"";15;680;17/6/2009 00:00:00;"E6100000010C2041F163CC1D4A40FD87F4DBD7013540";"00000000010CFD87F4DBD70135402041F163CC1D4A40";1;6/7/2009 00:00:00;17/6/2009 00:00:00
250;737;267;"Store";"Contoso Athens Store";"Contoso Athens Store";"On";17/4/2004 00:00:00;;888;10559;10559;"237-555-0128";"237-555-0128";"";"";"";15;680;17/6/2009 00:00:00;"E6100000010C03780B2428FE424048BF7D1D38B73740";"00000000010C48BF7D1D38B7374003780B2428FE4240";1;10/7/2009 00:00:00;17/6/2009 00:00:00
252;713;296;"Store";"Contoso Canberra Store";"Contoso Canberra Store";"On";17/11/2005 00:00:00;;889;;;"413-555-0124";"413-555-0124";"Canberra International shopping mall, Australia";"Canberra International shopping mall, Australia";"";28;480;17/6/2009 00:00:00;"E6100000010CA301BC0512A441C06ABC749318A46240";"00000000010C6ABC749318A46240A301BC0512A441C0";1;10/7/2009 00:00:00;17/6/2009 00:00:00
255;723;269;"Store";"Contoso New Delhi Store";"Contoso New Delhi Store";"On";29/4/2004 00:00:00;;892;110005;110005;"153-555-0166";"153-555-0166";"Khan Market, New Delhi,  India";"Khan Market, New Delhi,  India";"";29;480;17/6/2009 00:00:00;"E6100000010CA4703D0AD7A33C4012A5BDC1174E5340";"00000000010C12A5BDC1174E5340A4703D0AD7A33C40";1;10/7/2009 00:00:00;17/6/2009 00:00:00
257;718;271;"Store";"Contoso Kolkata Store";"Contoso Kolkata Store";"On";11/6/2005 00:00:00;;894;700017;700017;"491-555-0183";"491-555-0183";"Citycenter, Kolkata, West Bengal, India‎";"Citycenter, Kolkata, West Bengal, India‎";"";35;480;17/6/2009 00:00:00;"E6100000010CFA7E6ABC74933640A5BDC11726175640";"00000000010CA5BDC11726175640FA7E6ABC74933640";1;10/12/2008 00:00:00;17/6/2009 00:00:00
260;730;274;"Store";"Contoso Tehran No.1 Store";"Contoso Tehran No.1 Store";"On";4/9/2004 00:00:00;;897;1698530;1698530;"325-555-0137";"325-555-0137";"Citycenter, Tehran, Tehran, Iran";"Citycenter, Tehran, Tehran, Iran";"";35;480;17/6/2009 00:00:00;"E6100000010C8A8EE4F21FDA41403CBD529621B64940";"00000000010C3CBD529621B649408A8EE4F21FDA4140";1;10/12/2008 00:00:00;17/6/2009 00:00:00
262;709;276;"Store";"Contoso Bangkok No.1 Store";"Contoso Bangkok No.1 Store";"On";6/11/2008 00:00:00;;899;10110;10110;"961-555-0122";"961-555-0122";"Bangkok,Citycenter, Thailand";"Bangkok,Citycenter, Thailand";"";62;480;17/6/2009 00:00:00;"E6100000010C0DE02D90A0982B4066666666661E5940";"00000000010C66666666661E59400DE02D90A0982B40";1;10/12/2008 00:00:00;17/6/2009 00:00:00
265;717;279;"Store";"Contoso Islamabad No.1 Store";"Contoso Islamabad No.1 Store";"On";9/2/2004 00:00:00;;902;10086;10086;"306-555-0186";"306-555-0186";"Islamabad Capital Territory, Pakistan";"Islamabad Capital Territory, Pakistan";"";71;480;17/6/2009 00:00:00;"E6100000010C87A757CA32DC4040AB3E575BB1435240";"00000000010CAB3E575BB143524087A757CA32DC4040";1;10/12/2008 00:00:00;17/6/2009 00:00:00
269;735;282;"Store";"Contoso Yokohama Store";"Contoso Yokohama Store";"On";15/5/2004 00:00:00;;906;;;"151-555-0113";"151-555-0113";"Citycenter, Kanagawa Prefecture Japan";"Citycenter, Kanagawa Prefecture Japan";"";77;480;17/6/2009 00:00:00;"E6100000010CB7627FD93DB94140C74B378941746140";"00000000010CC74B378941746140B7627FD93DB94140";1;10/12/2008 00:00:00;17/6/2009 00:00:00
272;725;285;"Store";"Contoso Sapporo Store";"Contoso Sapporo Store";"On";20/8/2007 00:00:00;;909;39864;39864;"125-555-0196";"125-555-0196";"sapporo Hokkaido northwest district";"sapporo Hokkaido northwest district";"";50;480;17/6/2009 00:00:00;"E6100000010C6FF085C9548945403333333333AB6140";"00000000010C3333333333AB61406FF085C954894540";1;10/12/2008 00:00:00;17/6/2009 00:00:00
274;726;287;"Store";"Contoso Seoul Store";"Contoso Seoul Store";"On";13/10/2008 00:00:00;;911;57;57;"370-555-0163";"370-555-0163";"Seoul west district";"Seoul west district";"";50;480;17/6/2009 00:00:00;"E6100000010CB6F3FDD478C942407593180456BE5F40";"00000000010C7593180456BE5F40B6F3FDD478C94240";1;10/12/2008 00:00:00;17/6/2009 00:00:00
279;710;292;"Store";"Contoso Beijing Store";"Contoso Beijing Store";"On";16/7/2008 00:00:00;;851;100007;100007;"486-555-0150";"486-555-0150";"China Beijing Chaoyang distrct Shanlitun Rd";"China Beijing Chaoyang distrct Shanlitun Rd";"";86;480;17/6/2009 00:00:00;"E6100000010C2041F163CCF5434037894160E5185D40";"00000000010C37894160E5185D402041F163CCF54340";1;10/7/2009 00:00:00;17/6/2009 00:00:00
14;825;47;"Store";"Contoso Fall City Store";"Contoso Fall City Store";"On";23/1/2006 00:00:00;;648;97001;97014;"819-555-0175";"819-555-0175";"Fall City, Citycenter";"Fall City, Citycenter";"";47;1125;16/6/2009 00:00:00;"E6100000010CA835CD3B4EC947406F1283C0CA795EC0";"00000000010C6F1283C0CA795EC0A835CD3B4EC94740";1;10/7/2009 00:00:00;16/6/2009 00:00:00
16;627;49;"Store";"Contoso Everett Store";"Contoso Everett Store";"On";25/1/2004 00:00:00;;650;97001;97016;"508-555-0165";"508-555-0165";"Riverside  Ave Shopping mall";"Riverside  Ave";"";17;462;16/6/2009 00:00:00;"E6100000010C3B70CE88D2FE474023DBF97E6A8C5EC0";"00000000010C23DBF97E6A8C5EC03B70CE88D2FE4740";1;10/7/2009 00:00:00;16/6/2009 00:00:00
21;950;66;"Store";"Contoso Wheat Ridge Store";"Contoso Wheat Ridge Store";"On";2/11/2004 00:00:00;;655;87001;87002;"202-555-0151";"202-555-0151";"Wheat Ridge, CityCenter";"Wheat Ridge, CityCenter";"";47;1125;16/6/2009 00:00:00;"E6100000010C09F9A067B3E24340C976BE9F1A475AC0";"00000000010CC976BE9F1A475AC009F9A067B3E24340";1;10/7/2009 00:00:00;16/6/2009 00:00:00
24;887;56;"Store";"Contoso New Castle Store";"Contoso New Castle Store";"On";15/2/2004 00:00:00;;658;87001;87005;"413-555-0136";"413-555-0136";"New Castle CityCenter";"New Castle CityCenter";"";25;700;16/6/2009 00:00:00;"E6100000010CBE30992A18D54340E3A59BC420E452C0";"00000000010CE3A59BC420E452C0BE30992A18D54340";1;10/7/2009 00:00:00;16/6/2009 00:00:00
26;867;58;"Store";"Contoso Loveland Store";"Contoso Loveland Store";"On";17/4/2004 00:00:00;;660;87001;87007;"166-555-0162";"166-555-0162";"Loveland Downtown";"Loveland Downtown";"";26;680;16/6/2009 00:00:00;"E6100000010C7958A835CDAB49406A34B91803EBB4BF";"00000000010C6A34B91803EBB4BF7958A835CDAB4940";1;10/7/2009 00:00:00;16/6/2009 00:00:00
31;839;57;"Store";"Contoso Greeley No.2 Store";"Contoso Greeley No.2 Store";"On";22/9/2004 00:00:00;;665;80631;80631;"138-555-0128";"138-555-0128";"Greeley  Downtown Shopping mall";"Greeley  Downtown Shopping mall";"";17;462;16/6/2009 00:00:00;"E6100000010C8638D6C56D344440B0726891ED2C5AC0";"E6100000010CB0726891ED2C5AC08638D6C56D344440";1;10/5/2009 00:00:00;16/6/2009 00:00:00
34;818;65;"Store";"Contoso Denver No.1 Store";"Contoso Denver No.1 Store";"On";2/12/2004 00:00:00;;668;87001;87015;"609-555-0179";"609-555-0179";"Coors Field 17th St";"Coors Field 17th St";"";26;680;16/6/2009 00:00:00;"E6100000010C60764F1E16E24340736891ED7C3F5AC0";"00000000010C736891ED7C3F5AC060764F1E16E24340";1;10/5/2009 00:00:00;16/6/2009 00:00:00
36;818;65;"Store";"Contoso Denver No.3 Store";"Contoso Denver No.3 Store";"On";27/6/2003 00:00:00;;670;87001;87017;"943-555-0196";"943-555-0196";"Wellshire St";"Wellshire St";"";33;560;16/6/2009 00:00:00;"E6100000010C226C787AA5DC4340EE7C3F355E3A5AC0";"E6100000010CEE7C3F355E3A5AC0226C787AA5DC4340";1;10/5/2009 00:00:00;16/6/2009 00:00:00
39;865;68;"Store";"Contoso Littleton Store";"Contoso Littleton Store";"On";30/5/2003 00:00:00;;673;87001;87020;"963-555-0134";"963-555-0134";"Littleton, Citycenter";"Littleton, Citycenter";"";17;462;16/6/2009 00:00:00;"E6100000010C23DBF97E6ACC43408D976E1283405AC0";"00000000010C8D976E1283405AC023DBF97E6ACC4340";1;10/5/2009 00:00:00;16/6/2009 00:00:00
41;904;70;"Store";"Contoso Parker Store";"Contoso Parker Store";"On";2/7/2004 00:00:00;;675;54001;54001;"218-555-0126";"218-555-0126";"Parker, CO  Shopping mall";"Parker, CO  Shopping mall";"";26;680;16/6/2009 00:00:00;"E6100000010C43AD69DE71C24340EE7C3F355E325AC0";"00000000010CEE7C3F355E325AC043AD69DE71C24340";1;10/5/2009 00:00:00;16/6/2009 00:00:00
44;874;73;"Store";"Contoso Menasha Store";"Contoso Menasha Store";"On";5/10/2003 00:00:00;;678;54001;54004;"685-555-0120";"685-555-0120";"Menasha, WI Shopping mall";"Menasha, WI Shopping mall";"";47;1125;16/6/2009 00:00:00;"E6100000010C091B9E5E291B4640A301BC05121C56C0";"00000000010CA301BC05121C56C0091B9E5E291B4640";1;6/7/2009 00:00:00;16/6/2009 00:00:00
46;827;136;"Store";"Contoso Fond du Lac Store";"Contoso Fond du Lac Store";"On";7/12/2007 00:00:00;;680;54001;54006;"992-555-0194";"992-555-0194";"Fond du Lac Shopping mall";"Fond du Lac Shopping mall";"";17;460;16/6/2009 00:00:00;"E6100000010C33C4B12E6EE34540AA605452271C56C0";"00000000010CAA605452271C56C033C4B12E6EE34540";1;6/7/2009 00:00:00;16/6/2009 00:00:00
49;878;75;"Store";"Contoso Milwaukee No.3 Store";"Contoso Milwaukee No.3 Store";"On";2/4/2004 00:00:00;;683;54001;54009;"778-555-0141";"778-555-0141";"Lincoln Village St";"Lincoln Village St";"";26;680;16/6/2009 00:00:00;"E6100000010C2BF697DD937F454002BC051214FB55C0";"E6100000010C02BC051214FB55C02BF697DD937F4540";1;6/7/2009 00:00:00;16/6/2009 00:00:00
51;918;87;"Store";"Contoso Racine No.1 Store";"Contoso Racine No.1 Store";"On";15/5/2004 00:00:00;;685;54001;54001;"846-555-0157";"846-555-0157";"Racine shopping mall";"Racine shopping mall";"";33;560;16/6/2009 00:00:00;"E6100000010CCCEEC9C3425D4540E6AE25E483F255C0";"00000000010CE6AE25E483F255C0CCEEC9C3425D4540";1;10/7/2009 00:00:00;16/6/2009 00:00:00
54;949;76;"Store";"Contoso Waukesha No.2 Store";"Contoso Waukesha No.2 Store";"On";20/8/2004 00:00:00;;688;54014;54014;"669-555-0150";"669-555-0150";"Waukesha, WI 8th Ave";"Waukesha, WI 8th Ave";"";17;462;16/6/2009 00:00:00;"E6100000010CF163CC5D4B804540B537F8C2640E56C0";"E6100000010CB537F8C2640E56C0F163CC5D4B804540";1;10/7/2009 00:00:00;16/6/2009 00:00:00
59;871;81;"Store";"Contoso Manitowoc Store";"Contoso Manitowoc Store";"On";27/4/2004 00:00:00;;693;54001;54019;"714-555-0138";"714-555-0138";"Manitowoc, DAWI St Shopping mall";"Manitowoc, DAWI St Shopping mall";"";33;560;16/6/2009 00:00:00;"E6100000010C4FAF9465880B46404182E2C798EB55C0";"00000000010C4182E2C798EB55C04FAF9465880B4640";1;10/7/2009 00:00:00;16/6/2009 00:00:00
61;898;83;"Store";"Contoso Oregon Store";"Contoso Oregon Store";"On";29/3/2004 00:00:00;;695;54001;54021;"932-555-0161";"932-555-0161";"Oregon, EQI St  Shopping mall";"Oregon, EQI St  Shopping mall";"";22;500;16/6/2009 00:00:00;"E6100000010C772D211FF4F44540B81E85EB51285EC0";"00000000010CB81E85EB51285EC0772D211FF4F44540";1;10/7/2009 00:00:00;16/6/2009 00:00:00
64;828;86;"Store";"Contoso Fort Atkinson Store";"Contoso Fort Atkinson Store";"On";1/6/2004 00:00:00;;698;54001;54024;"688-555-0192";"688-555-0192";"Fort Atkinson Citycenter";"Fort Atkinson Citycenter";"";26;680;16/6/2009 00:00:00;"E6100000010C3B70CE88D2764540EE5A423EE83556C0";"00000000010CEE5A423EE83556C03B70CE88D2764540";1;10/7/2009 00:00:00;16/6/2009 00:00:00
66;849;88;"Store";"Contoso Houston No.1 Store";"Contoso Houston No.1 Store";"On";3/8/2004 00:00:00;;700;70001;77009;"901-555-0125";"901-555-0125";"Texas Houston Freeman St";"Texas Houston Freeman St";"";33;560;16/6/2009 00:00:00;"E6100000010C82E2C798BBC63D400F0BB5A679D757C0";"00000000010C0F0BB5A679D757C082E2C798BBC63D40";1;10/5/2009 00:00:00;16/6/2009 00:00:00
69;849;88;"Store";"Contoso Houston No.4 Store";"Contoso Houston No.4 Store";"On";3/8/2004 00:00:00;;703;70001;77020;"623-555-0155";"623-555-0155";"Texas Houston Sakowitz St";"Texas Houston Sakowitz St";"";17;460;16/6/2009 00:00:00;"E6100000010CDBF97E6ABC843D403EE8D9ACFAC057C0";"E6100000010C3EE8D9ACFAC057C0DBF97E6ABC843D40";1;10/5/2009 00:00:00;16/6/2009 00:00:00
71;924;90;"Store";"Contoso Russellville Store";"Contoso Russellville Store";"On";5/11/2007 00:00:00;;705;70001;77020;"793-555-0179";"793-555-0179";"Russellville, AR St";"Russellville, AR St";"";25;700;16/6/2009 00:00:00;"E6100000010C6DC5FEB27BA2414005A3923A014957C0";"00000000010C05A3923A014957C06DC5FEB27BA24140";1;10/5/2009 00:00:00;16/6/2009 00:00:00
74;872;93;"Store";"Contoso Marshall Store";"Contoso Marshall Store";"On";18/2/2004 00:00:00;;708;70001;77003;"248-555-0134";"248-555-0134";"Marshall, TX Shopping mall";"Marshall, TX Shopping mall";"";33;560;16/6/2009 00:00:00;"E6100000010C0612143FC64440406DC5FEB27B9657C0";"00000000010C6DC5FEB27B9657C00612143FC6444040";1;10/5/2009 00:00:00;16/6/2009 00:00:00
76;798;95;"Store";"Contoso Beaumont No.1 Store";"Contoso Beaumont No.1 Store";"On";20/2/2004 00:00:00;;710;70001;77019;"896-555-0168";"896-555-0168";"Beaumont, Tt Shopping mall";"Beaumont, Tt Shopping mall";"";22;500;16/6/2009 00:00:00;"E6100000010C9A99999999193E40265305A3928657C0";"E6100000010C265305A3928657C09A99999999193E40";1;10/5/2009 00:00:00;16/6/2009 00:00:00
79;579;97;"Store";"Contoso Baytown Store";"Contoso Baytown Store";"On";17/1/2004 00:00:00;;713;70001;77005;"119-555-0117";"119-555-0117";"Baytown, TX St Shopping mall";"Baytown, TX St Shopping mall";"";26;680;16/6/2009 00:00:00;"E6100000010C956588635DBC3D40D200DE0209BE57C0";"00000000010CD200DE0209BE57C0956588635DBC3D40";1;10/7/2009 00:00:00;16/6/2009 00:00:00
81;793;99;"Store";"Contoso Bacliff Store";"Contoso Bacliff Store";"On";19/3/2004 00:00:00;;715;70001;77002;"143-555-0173";"143-555-0173";"Bacliff Downtown Shopping mall";"Bacliff Downtown Shopping mall";"";19;455;16/6/2009 00:00:00;"E6100000010C8A8EE4F21F823D402CD49AE61DBF57C0";"00000000010C2CD49AE61DBF57C08A8EE4F21F823D40";1;10/5/2009 00:00:00;16/6/2009 00:00:00
86;791;104;"Store";"Contoso Austin Store";"Contoso Austin Store";"On";24/8/2004 00:00:00;;720;70001;77004;"172-555-0130";"172-555-0130";"Central East Austin St";"Central East Austin St";"";25;700;16/6/2009 00:00:00;"E6100000010C24287E8CB94B3E408716D9CEF76F58C0";"00000000010C8716D9CEF76F58C024287E8CB94B3E40";1;10/5/2009 00:00:00;16/6/2009 00:00:00
89;923;107;"Store";"Contoso Round Rock Store";"Contoso Round Rock Store";"On";27/11/2004 00:00:00;;723;70001;77009;"373-555-0142";"373-555-0142";"Egger Acres St";"Egger Acres St";"";33;560;16/6/2009 00:00:00;"E6100000010C2FDD240681853E40AC8BDB68006B58C0";"00000000010CAC8BDB68006B58C02FDD240681853E40";1;10/5/2009 00:00:00;16/6/2009 00:00:00
91;834;109;"Store";"Contoso Georgetown Store";"Contoso Georgetown Store";"On";29/1/2003 00:00:00;;725;75201;75203;"777-555-0141";"777-555-0141";"Georgetown St";"Georgetown St";"";22;500;16/6/2009 00:00:00;"E6100000010CFD87F4DBD7514340A9A44E40135153C0";"00000000010CA9A44E40135153C0FD87F4DBD7514340";1;10/5/2009 00:00:00;16/6/2009 00:00:00
94;837;112;"Store";"Contoso Grand Prairie Store";"Contoso Grand Prairie Store";"On";3/2/2003 00:00:00;;728;75201;75206;"845-555-0184";"845-555-0184";"Grand Prairie, TX  Downtown";"Grand Prairie, TX  Downtown";"";25;700;16/6/2009 00:00:00;"E6100000010C0DE02D90A06040407958A835CD3F58C0";"00000000010C7958A835CD3F58C00DE02D90A0604040";1;10/7/2009 00:00:00;16/6/2009 00:00:00
96;919;114;"Store";"Contoso Richardson Store";"Contoso Richardson Store";"On";1/2/2003 00:00:00;;730;75201;75208;"208-555-0114";"208-555-0114";"Richardson Downtown Shopping mall";"Richardson Downtown Shopping mall";"";19;455;16/6/2009 00:00:00;"E6100000010CBE30992A187D404051DA1B7C612E58C0";"00000000010C51DA1B7C612E58C0BE30992A187D4040";1;6/7/2009 00:00:00;16/6/2009 00:00:00
99;831;117;"Store";"Contoso Fort Worth Store";"Contoso Fort Worth Store";"On";4/6/2003 00:00:00;;733;75201;75211;"148-555-0145";"148-555-0145";"Amon Carter Museum St";"Amon Carter Museum St";"";22;500;16/6/2009 00:00:00;"E6100000010C8B6CE7FBA9614040287E8CB96B5558C0";"00000000010C287E8CB96B5558C08B6CE7FBA9614040";1;6/7/2009 00:00:00;16/6/2009 00:00:00
101;875;119;"Store";"Contoso Miami No.1 Store";"Contoso Miami No.1 Store";"On";6/8/2003 00:00:00;;735;33128;33130;"199-555-0117";"199-555-0117";"FLW Flagler St";"FLW Flagler St";"";17;462;16/6/2009 00:00:00;"E6100000010CF4FDD478E9C639406A4DF38E530C54C0";"00000000010C6A4DF38E530C54C0F4FDD478E9C63940";1;6/7/2009 00:00:00;16/6/2009 00:00:00
104;937;121;"Store";"Contoso Tallahassee No.1 Store";"Contoso Tallahassee No.1 Store";"On";9/11/2003 00:00:00;;738;32301;32301;"200-555-0117";"200-555-0117";"Woodland Drives St";"Woodland Drives St";"";19;455;16/6/2009 00:00:00;"E6100000010C36AB3E575B713E40273108AC1C1255C0";"00000000010C273108AC1C1255C036AB3E575B713E40";1;10/7/2009 00:00:00;16/6/2009 00:00:00
109;830;125;"Store";"Contoso Fort Lauderdale Store";"Contoso Fort Lauderdale Store";"On";14/2/2003 00:00:00;;743;33304;33304;"582-555-0178";"582-555-0178";"G Harold Martin Downtown";"G Harold Martin Downtown";"";25;700;16/6/2009 00:00:00;"E6100000010CF90FE9B7AF233A403F355EBA490854C0";"00000000010C3F355EBA490854C0F90FE9B7AF233A40";1;10/7/2009 00:00:00;16/6/2009 00:00:00
111;938;127;"Store";"Contoso Tampa Store";"Contoso Tampa Store";"On";16/2/2003 00:00:00;;745;33605;33605;"531-555-0183";"531-555-0183";"E Columbus Downtown";"E Columbus Downtown";"";26;680;16/6/2009 00:00:00;"E6100000010C211FF46C56FD3B40371AC05B209D54C0";"00000000010C371AC05B209D54C0211FF46C56FD3B40";1;10/12/2008 00:00:00;16/6/2009 00:00:00
114;782;130;"Store";"Contoso Albany Store";"Contoso Albany Store";"On";12/2/2004 00:00:00;;748;12207;12207;"697-555-0142";"697-555-0142";"N Pine St";"N Pine St";"";47;1125;16/6/2009 00:00:00;"E6100000010CDB8AFD65F75445403FC6DCB584705240";"00000000010C3FC6DCB584705240DB8AFD65F7544540";1;10/12/2008 00:00:00;16/6/2009 00:00:00
116;922;132;"Store";"Contoso Rochester No.1 Store";"Contoso Rochester No.1 Store";"On";2/4/2004 00:00:00;;750;14608;14608;"147-555-0179";"147-555-0179";"Madison St";"Madison St";"";17;462;16/6/2009 00:00:00;"E6100000010CCE1951DA1B944540083D9B559F6753C0";"00000000010C083D9B559F6753C0CE1951DA1B944540";1;10/12/2008 00:00:00;16/6/2009 00:00:00
121;804;140;"Store";"Contoso Brooklyn Store";"Contoso Brooklyn Store";"On";19/9/2004 00:00:00;;755;11238;11238;"158-555-0191";"158-555-0191";"Flatbush Ave St";"Flatbush Ave St";"";47;1125;16/6/2009 00:00:00;"E6100000010C2DB29DEFA756444083C0CAA1457E52C0";"00000000010C83C0CAA1457E52C02DB29DEFA7564440";1;10/12/2008 00:00:00;16/6/2009 00:00:00
124;922;132;"Store";"Contoso Rochester No.2 Store";"Contoso Rochester No.2 Store";"On";22/12/2004 00:00:00;;758;14608;14608;"510-555-0121";"510-555-0121";"Canal St";"Canal St";"";25;700;16/6/2009 00:00:00;"E6100000010C6ADE718A8E944540A4703D0AD76753C0";"E6100000010CA4703D0AD76753C06ADE718A8E944540";1;10/12/2008 00:00:00;16/6/2009 00:00:00
126;823;144;"Store";"Contoso Elmira Store";"Contoso Elmira Store";"On";24/2/2004 00:00:00;;760;14901;14901;"139-555-0120";"139-555-0120";"Columbia St";"Columbia St";"";26;680;16/6/2009 00:00:00;"E6100000010CCEAACFD5560C4540158C4AEA043453C0";"00000000010C158C4AEA043453C0CEAACFD5560C4540";1;10/12/2008 00:00:00;16/6/2009 00:00:00
131;891;147;"Store";"Contoso Newark No.2 Store";"Contoso Newark No.2 Store";"On";29/9/2004 00:00:00;;765;7102;7102;"200-555-0112";"200-555-0112";"Edison PI St";"Edison PI St";"";17;462;16/6/2009 00:00:00;"E6100000010CCBA145B6F35D4440A5BDC117268B52C0";"E6100000010CA5BDC117268B52C0CBA145B6F35D4440";1;6/7/2009 00:00:00;16/6/2009 00:00:00
134;814;150;"Store";"Contoso Clifton Store";"Contoso Clifton Store";"On";24/1/2004 00:00:00;;768;7013;7013;"417-555-0154";"417-555-0154";"Kowal Downtown";"Kowal Downtown";"";26;680;16/6/2009 00:00:00;"E6100000010CF46C567DAE6E444020D26F5F078A52C0";"00000000010C20D26F5F078A52C0F46C567DAE6E4440";1;10/7/2009 00:00:00;16/6/2009 00:00:00
136;907;152;"Store";"Contoso Passaic Store";"Contoso Passaic Store";"On";16/3/2004 00:00:00;;770;7055;7055;"180-555-0136";"180-555-0136";"190 Paulison Ave";"190 Paulison Ave";"";33;560;16/6/2009 00:00:00;"E6100000010CCA32C4B12E6E4440158C4AEA048852C0";"00000000010C158C4AEA048852C0CA32C4B12E6E4440";1;10/7/2009 00:00:00;16/6/2009 00:00:00
139;886;155;"Store";"Contoso New Brunswick Store";"Contoso New Brunswick Store";"On";19/6/2004 00:00:00;;773;8901;8901;"533-555-0111";"533-555-0111";"Suydam St";"Suydam St";"";17;462;16/6/2009 00:00:00;"E6100000010CBC96900F7A3E4440234A7B832F9C52C0";"00000000010C234A7B832F9C52C0BC96900F7A3E4440";1;10/7/2009 00:00:00;16/6/2009 00:00:00
141;788;157;"Store";"Contoso Atlantic City Store";"Contoso Atlantic City Store";"On";21/8/2004 00:00:00;;775;8401;8401;"446-555-0118";"446-555-0118";"Pacific Ave";"Pacific Ave";"";26;680;16/6/2009 00:00:00;"E6100000010CBBB88D06F0AE4340DC4603780B9C52C0";"00000000010CDC4603780B9C52C0BBB88D06F0AE4340";1;10/12/2008 00:00:00;16/6/2009 00:00:00
144;882;160;"Store";"Contoso Morristown Store";"Contoso Morristown Store";"On";24/11/2004 00:00:00;;778;7960;7960;"646-555-0185";"646-555-0185";"Washington St";"Washington St";"";47;1125;16/6/2009 00:00:00;"E6100000010C91ED7C3F35664440B4C876BE9F9E52C0";"00000000010CB4C876BE9F9E52C091ED7C3F35664440";1;10/12/2008 00:00:00;16/6/2009 00:00:00
146;802;162;"Store";"Contoso Boston Store";"Contoso Boston Store";"On";6/11/2004 00:00:00;;780;2210;2210;"615-555-0110";"615-555-0110";"Channel Center St";"Channel Center St";"";17;460;16/6/2009 00:00:00;"E6100000010C910F7A36AB2E454055302AA913C451C0";"00000000010C55302AA913C451C0910F7A36AB2E4540";1;10/12/2008 00:00:00;16/6/2009 00:00:00
149;885;164;"Store";"Contoso New Bedford Store";"Contoso New Bedford Store";"On";19/2/2004 00:00:00;;783;2740;2740;"965-555-0155";"965-555-0155";"Palmer CityCenter";"Palmer CityCenter";"";26;680;16/6/2009 00:00:00;"E6100000010CC442AD69DED1444070CE88D2DEBC51C0";"00000000010C70CE88D2DEBC51C0C442AD69DED14440";1;10/12/2008 00:00:00;16/6/2009 00:00:00
151;868;166;"Store";"Contoso Lowell Store";"Contoso Lowell Store";"On";21/2/2004 00:00:00;;785;1852;1852;"181-555-0124";"181-555-0124";"Gorham Citycenter";"Gorham Citycenter";"";33;560;16/6/2009 00:00:00;"E6100000010CC58F31772D5145401D5A643BDFD351C0";"00000000010C1D5A643BDFD351C0C58F31772D514540";1;10/12/2008 00:00:00;16/6/2009 00:00:00
154;917;169;"Store";"Contoso Quincy Store";"Contoso Quincy Store";"On";18/2/2004 00:00:00;;788;2169;2169;"870-555-0122";"870-555-0122";"Thomas E Burgin St";"Thomas E Burgin St";"";17;462;16/6/2009 00:00:00;"E6100000010C1B0DE02D90204540637FD93D79C051C0";"00000000010C637FD93D79C051C01B0DE02D90204540";1;6/7/2009 00:00:00;16/6/2009 00:00:00
156;449;171;"Store";"Contoso Cambridge Store";"Contoso Cambridge Store";"On";20/4/2004 00:00:00;;790;2138;2138;"594-555-0110";"594-555-0110";"8 Story St  Shopping mall";"8 Story St  Shopping mall";"";26;680;16/6/2009 00:00:00;"E6100000010CF163CC5D4B3045406B9A779CA2C751C0";"00000000010C6B9A779CA2C751C0F163CC5D4B304540";1;6/7/2009 00:00:00;16/6/2009 00:00:00
159;869;174;"Store";"Contoso Lynn Store";"Contoso Lynn Store";"On";23/7/2004 00:00:00;;793;1904;1904;"869-555-0119";"869-555-0119";"Congress Rd";"Congress Rd";"";33;560;16/6/2009 00:00:00;"E6100000010C87A757CA323C4540A835CD3B4EBD51C0";"00000000010CA835CD3B4EBD51C087A757CA323C4540";1;6/7/2009 00:00:00;16/6/2009 00:00:00
161;848;176;"Store";"Contoso Holyoke Store";"Contoso Holyoke Store";"On";25/8/2004 00:00:00;;795;1040;1040;"819-555-0198";"819-555-0198";"Old Jarvis Ave";"Old Jarvis Ave";"";22;500;16/6/2009 00:00:00;"E6100000010C083D9B559F1B4540F085C954C12852C0";"00000000010CF085C954C12852C0083D9B559F1B4540";1;10/7/2009 00:00:00;16/6/2009 00:00:00
164;914;179;"Store";"Contoso Provincetown Store";"Contoso Provincetown Store";"On";2/12/2004 00:00:00;;798;2657;2657;"181-555-0156";"181-555-0156";"Alden St";"Alden St";"";26;680;16/6/2009 00:00:00;"E6100000010C105839B4C80645404ED1915CFE8B51C0";"00000000010C4ED1915CFE8B51C0105839B4C8064540";1;10/7/2009 00:00:00;16/6/2009 00:00:00
166;795;181;"Store";"Contoso Bangor Store";"Contoso Bangor Store";"On";17/10/2004 00:00:00;;800;4401;4401;"201-555-0163";"201-555-0163";"Woodland Dr St Shopping mall";"Woodland Dr St Shopping mall";"";33;560;16/6/2009 00:00:00;"E6100000010CEBE2361AC06B4640BB270F0BB53251C0";"00000000010CBB270F0BB53251C0EBE2361AC06B4640";1;10/7/2009 00:00:00;16/6/2009 00:00:00
169;862;184;"Store";"Contoso Lewiston Store";"Contoso Lewiston Store";"On";20/2/2004 00:00:00;;803;4240;4240;"140-555-0132";"140-555-0132";"50 Kevin St";"50 Kevin St";"";17;460;16/6/2009 00:00:00;"E6100000010CDD240681950B464018265305A38A51C0";"00000000010C18265305A38A51C0DD240681950B4640";1;10/7/2009 00:00:00;16/6/2009 00:00:00
171;932;186;"Store";"Contoso South Portland Store";"Contoso South Portland Store";"On";22/2/2004 00:00:00;;805;4106;4106;"990-555-0172";"990-555-0172";"Robert Mills St";"Robert Mills St";"";25;700;16/6/2009 00:00:00;"E6100000010C9BE61DA7E8D04540ADFA5C6DC59251C0";"00000000010CADFA5C6DC59251C09BE61DA7E8D04540";1;10/7/2009 00:00:00;16/6/2009 00:00:00
174;948;189;"Store";"Contoso Waterbury Store";"Contoso Waterbury Store";"On";19/3/2004 00:00:00;;808;6702;6702;"238-555-0116";"238-555-0116";"192 Bank St Shopping mall";"192 Bank St Shopping mall";"";33;560;16/6/2009 00:00:00;"E6100000010C3A92CB7F48C74440BB270F0BB54252C0";"00000000010CBB270F0BB54252C03A92CB7F48C74440";1;10/7/2009 00:00:00;16/6/2009 00:00:00
176;816;191;"Store";"Contoso Darien Store";"Contoso Darien Store";"On";21/5/2004 00:00:00;;810;6820;6820;"438-555-0172";"438-555-0172";"Lakeside Ave Shopping mall";"Lakeside Ave Shopping mall";"";22;500;16/6/2009 00:00:00;"E6100000010C6E3480B7408A4440AE47E17A145E52C0";"00000000010CAE47E17A145E52C06E3480B7408A4440";1;10/5/2009 00:00:00;16/6/2009 00:00:00
179;889;194;"Store";"Contoso New London Store";"Contoso New London Store";"On";24/8/2004 00:00:00;;813;6320;6320;"156-555-0199";"156-555-0199";"Jefferson Ave";"Jefferson Ave";"";26;680;16/6/2009 00:00:00;"E6100000010CF7E461A1D6AC44401F85EB51B80652C0";"00000000010C1F85EB51B80652C0F7E461A1D6AC4440";1;10/5/2009 00:00:00;16/6/2009 00:00:00
181;946;196;"Store";"Contoso Virginia Beach Store";"Contoso Virginia Beach Store";"On";26/10/2004 00:00:00;;815;23451;23451;"753-555-0129";"753-555-0129";"Atlantic Shopping mall";"Atlantic Shopping mall";"";19;455;16/6/2009 00:00:00;"E6100000010CD7A3703D0A6F424090A0F831E6FE52C0";"00000000010C90A0F831E6FE52C0D7A3703D0A6F4240";1;10/5/2009 00:00:00;16/6/2009 00:00:00
186;811;200;"Store";"Contoso Charlottesville Store";"Contoso Charlottesville Store";"On";18/2/2004 00:00:00;;820;22903;22903;"751-555-0134";"751-555-0134";"Grady Ave StShopping mall";"Grady Ave StShopping mall";"";25;700;16/6/2009 00:00:00;"E6100000010C3EE8D9ACFA044340567DAEB6629F53C0";"00000000010C567DAEB6629F53C03EE8D9ACFA044340";1;10/5/2009 00:00:00;16/6/2009 00:00:00
189;841;203;"Store";"Contoso Greenville Store";"Contoso Greenville Store";"On";21/2/2004 00:00:00;;823;29601;29601;"517-555-0122";"517-555-0122";"Lavinia St Shopping mall";"Lavinia St Shopping mall";"";33;560;16/6/2009 00:00:00;"E6100000010CAF25E4839E6D41400C022B87169954C0";"00000000010C0C022B87169954C0AF25E4839E6D4140";1;10/5/2009 00:00:00;16/6/2009 00:00:00
191;785;205;"Store";"Contoso Annapolis Store";"Contoso Annapolis Store";"On";17/1/2004 00:00:00;;825;21401;21401;"908-555-0159";"908-555-0159";"Cherry Grove Ave Shopping mall";"Cherry Grove Ave Shopping mall";"";22;500;16/6/2009 00:00:00;"E6100000010CCC5D4BC8077D4340287E8CB96B2153C0";"00000000010C287E8CB96B2153C0CC5D4BC8077D4340";1;6/7/2009 00:00:00;16/6/2009 00:00:00
194;920;208;"Store";"Contoso Ridgely Store";"Contoso Ridgely Store";"On";20/4/2004 00:00:00;;828;21660;21660;"310-555-0133";"310-555-0133";"Deerfield St";"Deerfield St";"";25;700;16/6/2009 00:00:00;"E6100000010C6FF085C95479434094F6065F98F852C0";"00000000010C94F6065F98F852C06FF085C954794340";1;6/7/2009 00:00:00;16/6/2009 00:00:00
196;905;210;"Store";"Contoso Parkville Store";"Contoso Parkville Store";"On";22/6/2004 00:00:00;;830;21234;21234;"949-555-0174";"949-555-0174";"Parkville St Shopping mall";"Parkville St Shopping mall";"";19;455;16/6/2009 00:00:00;"E6100000010C1B9E5E29CBB043401DC9E53FA42353C0";"00000000010C1DC9E53FA42353C01B9E5E29CBB04340";1;6/7/2009 00:00:00;16/6/2009 00:00:00
201;506;219;"Store";"Contoso London Store";"Contoso London Store";"On";27/11/2004 00:00:00;;833;;;"927-555-0168";"927-555-0168";"London, W1C 1HG, United Kingdom";"London, W1C 1HG, United Kingdom";"";17;462;16/6/2009 00:00:00;"E6100000010CF2D24D6210C0494017105A0F5F26C0BF";"00000000010C17105A0F5F26C0BFF2D24D6210C04940";1;10/7/2009 00:00:00;16/6/2009 00:00:00
204;576;222;"Store";"Contoso York Store";"Contoso York Store";"On";27/8/2004 00:00:00;;836;;;"848-555-0163";"848-555-0163";"Spurriergate York, North Yorkshire Citycenter, United Kingdom";"Spurriergate York, North Yorkshire Citycenter, United Kingdom";"";78;680;16/6/2009 00:00:00;"E6100000010CDFE00B93A9FA4A4086E63A8DB454F1BF";"00000000010C86E63A8DB454F1BFDFE00B93A9FA4A40";1;10/7/2009 00:00:00;16/6/2009 00:00:00
206;761;224;"Store";"Contoso Manchester Store";"Contoso Manchester Store";"On";19/6/2004 00:00:00;;838;;;"869-555-0125";"869-555-0125";"Windsor Ave Failsworth, Manchester Citycenter, United Kingdom";"Windsor Ave Failsworth, Manchester Citycenter, United Kingdom";"";11;680;16/6/2009 00:00:00;"E6100000010C2F6EA301BCBD4A40F931E6AE25E401C0";"00000000010CF931E6AE25E401C02F6EA301BCBD4A40";1;10/7/2009 00:00:00;16/6/2009 00:00:00
209;738;227;"Store";"Contoso Baildon Store";"Contoso Baildon Store";"On";22/9/2004 00:00:00;;841;;;"138-555-0118";"138-555-0118";"West Ln, Baildon, Shipley Citycenter, United";"West Ln, Baildon, Shipley Citycenter, United";"";32;680;16/6/2009 00:00:00;"E6100000010C780B24287EEC4A401956F146E691FCBF";"00000000010C1956F146E691FCBF780B24287EEC4A40";1;10/7/2009 00:00:00;16/6/2009 00:00:00
211;774;229;"Store";"Contoso Stockport Store";"Contoso Stockport Store";"On";24/11/2004 00:00:00;;843;;;"224-555-0187";"224-555-0187";"Buxton Rd High Lane, Stockport Citycenter, United Kingdom";"Buxton Rd High Lane, Stockport Citycenter, United Kingdom";"";34;680;16/6/2009 00:00:00;"E6100000010CEA95B20C71B44A404F0647C9AB3301C0";"00000000010C4F0647C9AB3301C0EA95B20C71B44A40";1;10/7/2009 00:00:00;16/6/2009 00:00:00
214;501;232;"Store";"Contoso Leeds Store";"Contoso Leeds Store";"On";27/6/2004 00:00:00;;846;;;"407-555-0165";"407-555-0165";"Leeds Citycenter, United Kingdom";"Leeds Citycenter, United Kingdom";"";25;680;16/6/2009 00:00:00;"E6100000010C58CA32C4B1E64A407D96E7C1DDD9F8BF";"00000000010C7D96E7C1DDD9F8BF58CA32C4B1E64A40";1;10/5/2009 00:00:00;16/6/2009 00:00:00
216;762;234;"Store";"Contoso Marseille Store";"Contoso Marseille Store";"On";29/4/2008 00:00:00;;854;13006;13006;"142-555-0139";"142-555-0139";"Citycenter Marseille, France";"Citycenter Marseille, France";"";13;680;16/6/2009 00:00:00;"E6100000010C3C4ED1915CA645406A300DC347841540";"00000000010C6A300DC3478415403C4ED1915CA64540";1;10/5/2009 00:00:00;16/6/2009 00:00:00
219;767;237;"Store";"Contoso Nice Store";"Contoso Nice Store";"On";2/2/2004 00:00:00;;857;51000;51000;"315-555-0144";"315-555-0144";"Citycenter Reims, France";"Citycenter Reims, France";"";32;680;16/6/2009 00:00:00;"E6100000010C43AD69DE71DA454021EA3E00A90D1D40";"00000000010C21EA3E00A90D1D4043AD69DE71DA4540";1;10/5/2009 00:00:00;16/6/2009 00:00:00
221;775;239;"Store";"Contoso Strasbourg Store";"Contoso Strasbourg Store";"On";4/9/2004 00:00:00;;859;67000;67000;"310-555-0117";"310-555-0117";"Downtown Strasbourg, France";"Downtown Strasbourg, France";"";10;630;16/6/2009 00:00:00;"E6100000010CB459F5B9DA4A484064AF777FBCF71E40";"00000000010C64AF777FBCF71E40B459F5B9DA4A4840";1;10/5/2009 00:00:00;16/6/2009 00:00:00
224;749;242;"Store";"Contoso Firenze Store";"Contoso Firenze Store";"On";7/12/2004 00:00:00;;862;50122;50122;"110-555-0112";"110-555-0112";"";"";"";45;500;16/6/2009 00:00:00;"E6100000010CED9E3C2CD4E24540A60A462575822640";"00000000010CA60A462575822640ED9E3C2CD4E24540";1;10/5/2009 00:00:00;16/6/2009 00:00:00
226;763;244;"Store";"Contoso Milan Store";"Contoso Milan Store";"On";9/4/2004 00:00:00;;864;20149;20149;"202-555-0187";"202-555-0187";"";"";"";23;500;16/6/2009 00:00:00;"E6100000010C4F401361C3BB464057091687335F2240";"00000000010C57091687335F22404F401361C3BB4640";1;10/7/2009 00:00:00;16/6/2009 00:00:00
231;752;248;"Store";"Contoso Hofheim Store";"Contoso Hofheim Store";"On";17/6/2004 00:00:00;;869;65719;65719;"405-555-0171";"405-555-0171";"Citycenter Hofheim am Taunus, Germany";"Citycenter Hofheim am Taunus, Germany";"";25;500;16/6/2009 00:00:00;"E6100000010CA54E4013610B494014E8137992E42040";"00000000010C14E8137992E42040A54E4013610B4940";1;10/5/2009 00:00:00;16/6/2009 00:00:00
234;747;251;"Store";"Contoso Dusseldorf Store";"Contoso Dusseldorf Store";"On";12/9/2007 00:00:00;;872;40229;40229;"283-555-0185";"283-555-0185";"Citycenter, Düsseldorf, Germany";"Citycenter, Düsseldorf, Germany";"";24;500;16/6/2009 00:00:00;"E6100000010C053411363C9D4940F54A598638161B40";"00000000010CF54A598638161B40053411363C9D4940";1;10/5/2009 00:00:00;16/6/2009 00:00:00
236;739;253;"Store";"Contoso Baumholder Store";"Contoso Baumholder Store";"On";25/6/2004 00:00:00;;874;55774;55774;"733-555-0128";"733-555-0128";"Shopping Mall Baumholder, Germany";"Shopping Mall Baumholder, Germany";"";28;500;16/6/2009 00:00:00;"E6100000010C80B74082E2CF484027A5A0DB4B5A1D40";"00000000010C27A5A0DB4B5A1D4080B74082E2CF4840";1;10/5/2009 00:00:00;16/6/2009 00:00:00
239;765;256;"Store";"Contoso Munich Store";"Contoso Munich Store";"On";28/2/2006 00:00:00;;877;80331;80331;"497-555-0181";"497-555-0181";"Citycenter München, Germany";"Citycenter München, Germany";"";18;500;16/6/2009 00:00:00;"E6100000010CC364AA60541248402DB29DEFA7262740";"00000000010C2DB29DEFA7262740C364AA6054124840";1;10/5/2009 00:00:00;16/6/2009 00:00:00
241;745;258;"Store";"Contoso Copenhagen Store";"Contoso Copenhagen Store";"On";30/4/2004 00:00:00;;879;;;"123-555-0167";"123-555-0167";"Ny Carlsbergvej 14 St, Denmark";"Ny Carlsbergvej 14 St, Denmark";"";25;680;16/6/2009 00:00:00;"E6100000010C575BB1BFECD64B401973D712F2212940";"00000000010C1973D712F2212940575BB1BFECD64B40";1;10/7/2009 00:00:00;16/6/2009 00:00:00
244;758;261;"Store";"Contoso Ljubljana Store";"Contoso Ljubljana Store";"On";2/7/2004 00:00:00;;882;1000;1000;"129-555-0199";"129-555-0199";"Citycenter Ljubljana, Slovenia";"Citycenter Ljubljana, Slovenia";"";36;680;16/6/2009 00:00:00;"E6100000010CD712F241CF0647405227A089B0012D40";"00000000010C5227A089B0012D40D712F241CF064740";1;6/7/2009 00:00:00;16/6/2009 00:00:00
246;740;263;"Store";"Contoso Berne Store";"Contoso Berne Store";"On";20/4/2004 00:00:00;;884;;;"590-555-0152";"590-555-0152";"";"";"";53;680;16/6/2009 00:00:00;"E6100000010C44FAEDEBC079474029AE2AFBAEC81D40";"00000000010C29AE2AFBAEC81D4044FAEDEBC0794740";1;6/7/2009 00:00:00;16/6/2009 00:00:00
249;746;266;"Store";"Contoso Dublin Store";"Contoso Dublin Store";"On";20/2/2006 00:00:00;;887;;;"720-555-0158";"720-555-0158";"Pconnell Street Upper Dublin, DUBLIN 1, Ireland";"Pconnell Street Upper Dublin, DUBLIN 1, Ireland";"";55;680;16/6/2009 00:00:00;"E6100000010C234A7B832FAC4A40C1560916871319C0";"00000000010CC1560916871319C0234A7B832FAC4A40";1;10/7/2009 00:00:00;16/6/2009 00:00:00
251;728;268;"Store";"Contoso Singapore Store";"Contoso Singapore Store";"On";22/4/2004 00:00:00;;848;302699;302699;"842-555-0158";"842-555-0158";"Havelock Road Shopping mall, Singapore";"Havelock Road Shopping mall, Singapore";"";27;480;16/6/2009 00:00:00;"E6100000010C9430D3F6AFACF43F83C0CAA145F65940";"00000000010C83C0CAA145F659409430D3F6AFACF43F";1;10/7/2009 00:00:00;16/6/2009 00:00:00
254;734;295;"Store";"Contoso Yerevan Store";"Contoso Yerevan Store";"On";28/3/2004 00:00:00;;891;10;10;"919-555-0140";"919-555-0140";"Amiryan Street Yerevan,  Armenia";"Amiryan Street Yerevan,  Armenia";"";15;480;16/6/2009 00:00:00;"E6100000010C3F575BB1BF1444402BF697DD933F4640";"00000000010C2BF697DD933F46403F575BB1BF144440";1;10/7/2009 00:00:00;16/6/2009 00:00:00
256;721;270;"Store";"Contoso Mumbai Store";"Contoso Mumbai Store";"On";30/7/2004 00:00:00;;893;201901;201901;"425-555-0117";"425-555-0117";"Mumbai Citycenter, Maharashtra, India";"Mumbai Citycenter, Maharashtra, India";"";35;480;16/6/2009 00:00:00;"E6100000010CBBB88D06F00633407CF2B0506B365240";"00000000010C7CF2B0506B365240BBB88D06F0063340";1;10/7/2009 00:00:00;16/6/2009 00:00:00
259;716;273;"Store";"Contoso Hong Kong No.1 Store";"Contoso Hong Kong No.1 Store";"On";3/8/2004 00:00:00;;896;;;"500-555-0172";"500-555-0172";"Hong Kong,  New Town Plaza‎";"Hong Kong,  New Town Plaza‎";"";35;480;16/6/2009 00:00:00;"E6100000010C36CD3B4ED1513640A245B6F3FD8C5C40";"00000000010CA245B6F3FD8C5C4036CD3B4ED1513640";1;10/12/2008 00:00:00;16/6/2009 00:00:00
261;714;275;"Store";"Contoso Damascus No.1 Store";"Contoso Damascus No.1 Store";"On";5/10/2007 00:00:00;;898;35005;35005;"582-555-0148";"582-555-0148";"Nissan Street, Mezze Damascus, Syria";"Nissan Street, Mezze Damascus, Syria";"";35;480;16/6/2009 00:00:00;"E6100000010C32772D211FC44040014D840D4F274240";"00000000010C014D840D4F27424032772D211FC44040";1;10/12/2008 00:00:00;16/6/2009 00:00:00
264;708;278;"Store";"Contoso Ashgabat No.1 Store";"Contoso Ashgabat No.1 Store";"On";18/1/2004 00:00:00;;901;744000;744000;"521-555-0113";"521-555-0113";"Gorogly Street, Turkmenistan";"Gorogly Street, Turkmenistan";"";68;480;16/6/2009 00:00:00;"E6100000010CF2D24D62100043401D386744692F4D40";"00000000010C1D386744692F4D40F2D24D6210004340";1;10/12/2008 00:00:00;16/6/2009 00:00:00
271;722;284;"Store";"Contoso Nagoya Store";"Contoso Nagoya Store";"On";18/8/2008 00:00:00;;908;40175;40175;"719-555-0181";"719-555-0181";"North district  Nagoya,Japan";"North district  Nagoya,Japan";"";50;480;16/6/2009 00:00:00;"E6100000010C3A234A7B830F4840C3D32B6519022740";"00000000010CC3D32B65190227403A234A7B830F4840";1;10/12/2008 00:00:00;16/6/2009 00:00:00
273;719;286;"Store";"Contoso Kyoto Store";"Contoso Kyoto Store";"On";2/9/2009 00:00:00;;910;;;"473-555-0117";"473-555-0117";"Kyoto centre district";"Kyoto centre district";"";50;480;16/6/2009 00:00:00;"E6100000010CA8C64B378981414014AE47E17AF86040";"00000000010C14AE47E17AF86040A8C64B3789814140";1;10/12/2008 00:00:00;16/6/2009 00:00:00
276;711;289;"Store";"Contoso Bishkek Store";"Contoso Bishkek Store";"On";13/8/2006 00:00:00;;913;720005;720005;"238-555-0197";"238-555-0197";"Biskek shopping mall, Chuskaya Oblast Kyrgyzstan";"Biskek shopping mall, Chuskaya Oblast Kyrgyzstan";"";50;480;16/6/2009 00:00:00;"E6100000010C8195438B6C6F45404BC8073D9BA55240";"00000000010C4BC8073D9BA552408195438B6C6F4540";1;10/12/2008 00:00:00;16/6/2009 00:00:00
278;733;291;"Store";"Contoso Urumqi Store";"Contoso Urumqi Store";"On";15/7/2005 00:00:00;;850;830000;830000;"970-555-0138";"970-555-0138";"Ulaanbaatar, Ulaanbaatar Mongolia";"Ulaanbaatar, Ulaanbaatar Mongolia";"";50;480;16/6/2009 00:00:00;"E6100000010CB1BFEC9E3CE4454044696FF085E55540";"00000000010C44696FF085E55540B1BFEC9E3CE44540";1;6/7/2009 00:00:00;16/6/2009 00:00:00
267;732;281;"Store";"Contoso Tokyo No.1 Store";"Contoso Tokyo No.1 Store";"On";2/4/2004 00:00:00;;904;;;"539-555-0149";"539-555-0149";"Shinjuku, Tokyo Citycenter";"Shinjuku, Tokyo Citycenter";"";68;480;17/6/2009 00:00:00;"E6100000010CF0164850FCD84140273108AC1C766140";"00000000010C273108AC1C766140F0164850FCD84140";1;10/12/2008 00:00:00;16/6/2009 00:00:00
268;732;281;"Store";"Contoso Tokyo No.2 Store";"Contoso Tokyo No.2 Store";"On";19/4/2006 00:00:00;;905;;;"228-555-0159";"228-555-0159";"Citycenter, Shinjuku-kuTokyo, Japan‎";"Citycenter, Shinjuku-kuTokyo, Japan‎";"";68;480;18/6/2009 00:00:00;"E6100000010CE17A14AE47D94140A4703D0AD7736140";"E6100000010CA4703D0AD7736140E17A14AE47D94140";1;10/12/2008 00:00:00;16/6/2009 00:00:00
1;693;35;"Store";"Contoso Seattle No.1 Store";"Contoso Seattle No.1 Store";"On";12/4/2004 00:00:00;;635;97001;97001;"320-555-0195";"320-555-0195";"East Queen Anne Big shopping mall";"East Queen Anne Big shopping mall";"";17;462;16/6/2009 00:00:00;"E6100000010CB81E85EB51D047404A0C022B87965EC0";"00000000010C4A0C022B87965EC0B81E85EB51D04740";1;5/6/2009 00:00:00;5/6/2009 00:00:00
2;693;35;"Store";"Contoso Seattle No.2 Store";"Contoso Seattle No.2 Store";"On";14/2/2004 00:00:00;;636;97001;97002;"150-555-0189";"150-555-0189";"Mino shopping mall";"Mino shopping mall";"";25;700;17/6/2009 00:00:00;"E6100000010C17B7D100DED247400000000000985EC0";"E6100000010C0000000000985EC017B7D100DED24740";1;5/6/2009 00:00:00;5/6/2009 00:00:00
4;424;37;"Store";"Contoso Bellevue Store";"Contoso Bellevue Store";"On";1/3/2004 00:00:00;;638;97001;97004;"612-555-0100";"612-555-0100";"West Lake Hills shopping mall";"West Lake Hills shopping mall";"";19;455;16/6/2009 00:00:00;"E6100000010CA2B437F8C2CC4740C520B07268895EC0";"00000000010CC520B07268895EC0A2B437F8C2CC4740";1;1/7/2009 00:00:00;1/7/2009 00:00:00
5;677;38;"Store";"Contoso Redmond Store";"Contoso Redmond Store";"On";2/4/2004 00:00:00;;639;97001;97005;"612-555-0100";"612-555-0100";"Downtown shopping mall";"Downtown shopping mall";"";33;560;17/6/2009 00:00:00;"E6100000010C67D5E76A2BD647408195438B6C875EC0";"00000000010C8126C286A7875EC092CB7F48BFD54740";1;13/6/2009 00:00:00;13/6/2009 00:00:00
6;575;39;"Store";"Contoso Yakima Store";"Contoso Yakima Store";"On";15/5/2005 00:00:00;;640;97001;97006;"168-555-0183";"168-555-0183";"Yakima, shopping mall";"Yakima, shopping mall";"";47;1125;16/6/2009 00:00:00;"E6100000010CF7065F984C4D47409CC420B072205EC0";"00000000010C9CC420B072205EC0F7065F984C4D4740";1;1/7/2009 00:00:00;1/7/2009 00:00:00
7;838;40;"Store";"Contoso Granger Store";"Contoso Granger Store";"On";16/6/2004 00:00:00;;641;97001;97007;"913-555-0172";"913-555-0172";"Granger, WA Downtown shopping mall";"Granger, WA Downtown shopping mall";"";22;500;17/6/2009 00:00:00;"E6100000010C8716D9CEF72B474096438B6CE70B5EC0";"00000000010C96438B6CE70B5EC08716D9CEF72B4740";1;11/2/2009 00:00:00;3/1/2009 00:00:00
9;941;42;"Store";"Contoso Toppenish Store";"Contoso Toppenish Store";"On";18/8/2004 00:00:00;;643;97001;97009;"903-555-0145";"903-555-0145";"Toppenish, Citycenter";"Toppenish, Citycenter";"";25;700;16/6/2009 00:00:00;"E6100000010C37894160E53047404E62105839145EC0";"00000000010C4E62105839145EC037894160E5304740";1;11/2/2009 00:00:00;25/6/2009 00:00:00
10;947;43;"Store";"Contoso Wapato Store";"Contoso Wapato Store";"On";19/9/2004 00:00:00;;644;97001;97010;"145-555-0130";"145-555-0130";"Wapato, Citycenter";"Wapato, Citycenter";"";25;700;17/6/2009 00:00:00;"E6100000010C36AB3E575B3947407B14AE47E11A5EC0";"00000000010C7B14AE47E11A5EC036AB3E575B394740";1;11/2/2009 00:00:00;5/6/2009 00:00:00
11;813;44;"Store";"Contoso Cle Elum Store";"Contoso Cle Elum Store";"On";20/10/2004 00:00:00;;645;97001;97011;"849-555-0139";"849-555-0139";"Cle Elum, Citycenter";"Cle Elum, Citycenter";"";26;680;16/6/2009 00:00:00;"E6100000010CBC96900F7AD64740FA7E6ABC745B5DC0";"00000000010CFA7E6ABC745B5DC0BC96900F7AD64740";1;11/2/2009 00:00:00;1/7/2009 00:00:00
304;772;14;"Store";"Contoso Saint Petersburg Store";"Contoso Saint Petersburg Store";"On";7/6/2004 00:00:00;;942;2014522;2014522;"510-555-0118";"517-555-0118";"Saint Petersburg  Citycenter, Shopping mall";"Saint Petersburg  Citycenter, Shopping mall";"";95;480;19/6/2009 00:00:00;"E6100000010C986E1283C02A4C4029CB10C7BA004640";"00000000010C29CB10C7BA004640986E1283C02A4C40";1;10/12/2008 00:00:00;18/6/2009 00:00:00
305;768;15;"Store";"Contoso Nizhny Novgorod Store";"Contoso Nizhny Novgorod Store";"On";15/3/2004 00:00:00;;944;147820;147820;"511-555-0119";"511-555-0119";"Nizhny Novgorod  Downtown, Shopping mall";"Nizhny Novgorod  Downtown, Shopping mall";"";95;480;20/6/2009 00:00:00;"E6100000010CC3F5285C8F2A4C4029CB10C7BA004640";"00000000010C29CB10C7BA004640C3F5285C8F2A4C40";1;10/12/2008 00:00:00;18/6/2009 00:00:00
3;856;36;"Store";"Contoso Kennewick Store";"Contoso Kennewick Store";"On";12/2/2004 00:00:00;;934;97001;97003;"212-555-0187";"212-555-0187";"Kennewick,  Downtown";"Kennewick,  Downtown";"";26;680;18/6/2009 00:00:00;"E6100000010C8B6CE7FBA9194740DD24068195CB5DC0";"00000000010CDD24068195CB5DC08B6CE7FBA9194740";1;21/11/2008 00:00:00;21/11/2008 00:00:00
8;935;41;"Store";"Contoso Sunnyside Store";"Contoso Sunnyside Store";"On";2/7/2004 00:00:00;;642;97001;97008;"913-555-0172";"913-555-0172";"Sunnyside, WA Citycenter";"Sunnyside, WA Citycenter";"";17;460;18/6/2009 00:00:00;"E6100000010C29CB10C7BA2847409CC420B072005EC0";"00000000010C9CC420B072005EC029CB10C7BA284740";1;11/2/2009 00:00:00;13/6/2009 00:00:00
13;930;46;"Store";"Contoso Snoqualmie Store";"Contoso Snoqualmie Store";"On";22/12/2004 00:00:00;;647;97001;97013;"122-555-0189";"122-555-0189";"Snoqualmie, Citycenter";"Snoqualmie, Citycenter";"";33;560;18/6/2009 00:00:00;"E6100000010C4FAF946588C34740E9263108AC745EC0";"00000000010CE9263108AC745EC04FAF946588C34740";1;25/5/2009 00:00:00;25/5/2009 00:00:00
18;944;50;"Store";"Contoso Veradale Store";"Contoso Veradale Store";"On";27/7/2004 00:00:00;;652;97001;97018;"632-555-0129";"632-555-0129";"Veradale, Citycenter";"Veradale, Citycenter";"";26;680;18/6/2009 00:00:00;"E6100000010C24287E8CB9D347405A643BDF4F4D5DC0";"00000000010C5A643BDF4F4D5DC024287E8CB9D34740";1;10/7/2009 00:00:00;18/6/2009 00:00:00
23;836;55;"Store";"Contoso Grand Junction Store";"Contoso Grand Junction Store";"On";24/1/2004 00:00:00;;657;87001;87004;"913-555-0196";"913-555-0196";"Grand Junction Downtown";"Grand Junction Downtown";"";17;460;18/6/2009 00:00:00;"E6100000010CB22E6EA3018C43403108AC1C5A245BC0";"00000000010C3108AC1C5A245BC0B22E6EA3018C4340";1;10/7/2009 00:00:00;18/6/2009 00:00:00
28;809;60;"Store";"Contoso Castle Rock Store";"Contoso Castle Rock Store";"On";19/6/2004 00:00:00;;662;87001;87009;"115-555-0179";"115-555-0179";"Castle Rock Downtown";"Castle Rock Downtown";"";33;560;18/6/2009 00:00:00;"E6100000010C9BE61DA7E8B04340D7A3703D0A375AC0";"00000000010CD7A3703D0A375AC09BE61DA7E8B04340";1;10/7/2009 00:00:00;18/6/2009 00:00:00
33;799;64;"Store";"Contoso Berthoud Store";"Contoso Berthoud Store";"On";24/11/2004 00:00:00;;667;87001;87014;"668-555-0130";"668-555-0130";"Berthoud, CO St";"Berthoud, CO St";"";26;680;18/6/2009 00:00:00;"E6100000010C64CC5D4BC8874740A73FFB9122721E40";"00000000010CA73FFB9122721E4064CC5D4BC8874740";1;10/5/2009 00:00:00;18/6/2009 00:00:00
38;940;67;"Store";"Contoso Thornton Store";"Contoso Thornton Store";"On";29/4/2003 00:00:00;;672;87001;87019;"333-555-0173";"333-555-0173";"Shopping mall, Citycenter";"Shopping mall, Citycenter";"";22;500;18/6/2009 00:00:00;"E6100000010CD93D7958A8F543404E621058393C5AC0";"00000000010C4E621058393C5AC0D93D7958A8F54340";1;10/5/2009 00:00:00;18/6/2009 00:00:00
43;786;72;"Store";"Contoso Appleton Store";"Contoso Appleton Store";"On";4/9/2003 00:00:00;;677;54001;54003;"164-555-0164";"164-555-0164";"Appleton, WI Newark St";"Appleton, WI Newark St";"";33;560;18/6/2009 00:00:00;"E6100000010C5396218E75214640F5B9DA8AFD1956C0";"00000000010CF5B9DA8AFD1956C05396218E75214640";1;10/7/2009 00:00:00;18/6/2009 00:00:00
53;821;138;"Store";"Contoso East Troy Store";"Contoso East Troy Store";"On";18/8/2004 00:00:00;;687;54001;54013;"191-555-0112";"191-555-0112";"East Troy, DW St Shopping mall";"East Troy, DW St Shopping mall";"";22;500;18/6/2009 00:00:00;"E6100000010C226C787AA56445406744696FF01956C0";"00000000010C6744696FF01956C0226C787AA5644540";1;10/7/2009 00:00:00;18/6/2009 00:00:00
58;928;80;"Store";"Contoso Sheboygan Store";"Contoso Sheboygan Store";"On";26/12/2004 00:00:00;;692;54001;54018;"319-555-0139";"319-555-0139";"Sheboygan, WIAmsterdam Ave";"Sheboygan, WIAmsterdam Ave";"";19;455;18/6/2009 00:00:00;"E6100000010C014D840D4FDF4540C9E53FA4DFEE55C0";"00000000010CC9E53FA4DFEE55C0014D840D4FDF4540";1;10/7/2009 00:00:00;18/6/2009 00:00:00
63;822;85;"Store";"Contoso Edgerton Store";"Contoso Edgerton Store";"On";31/5/2004 00:00:00;;697;54001;54023;"679-555-0113";"679-555-0113";"Edgerton, WI Broadway";"Edgerton, WI Broadway";"";25;700;18/6/2009 00:00:00;"E6100000010C3411363CBD6A4540637FD93D794456C0";"00000000010C637FD93D794456C03411363CBD6A4540";1;10/7/2009 00:00:00;18/6/2009 00:00:00
68;849;88;"Store";"Contoso Houston No.3 Store";"Contoso Houston No.3 Store";"On";2/7/2004 00:00:00;;702;70001;77010;"226-555-0197";"226-555-0197";"Texas Houston Brewster St";"Texas Houston Brewster St";"";22;500;18/6/2009 00:00:00;"E6100000010C287E8CB96BA93D40B7627FD93DC157C0";"E6100000010CB7627FD93DC157C0287E8CB96BA93D40";1;10/5/2009 00:00:00;18/6/2009 00:00:00
73;929;92;"Store";"Contoso Shreveport Store";"Contoso Shreveport Store";"On";17/10/2004 00:00:00;;707;70001;77002;"522-555-0147";"522-555-0147";"Texas Houston 1300 Baker St";"Texas Houston 1300 Baker St";"";19;455;18/6/2009 00:00:00;"E6100000010C7B14AE47E14240408048BF7D1D7057C0";"00000000010C8048BF7D1D7057C07B14AE47E1424040";1;10/5/2009 00:00:00;18/6/2009 00:00:00
78;798;95;"Store";"Contoso Beaumont No.2 Store";"Contoso Beaumont No.2 Store";"On";22/2/2004 00:00:00;;712;70001;77046;"808-555-0172";"808-555-0172";"Beaumont, TX Downtown";"Beaumont, TX Downtown";"";25;700;18/6/2009 00:00:00;"E6100000010C27C286A7571A3E4002BC0512148757C0";"E6100000010C02BC0512148757C027C286A7571A3E40";1;10/5/2009 00:00:00;18/6/2009 00:00:00
83;906;101;"Store";"Contoso Pasadena Store";"Contoso Pasadena Store";"On";21/5/2004 00:00:00;;717;70001;77003;"314-555-0113";"314-555-0113";"Pasadena, TX St Shopping mall";"Pasadena, TX St Shopping mall";"";47;1125;18/6/2009 00:00:00;"E6100000010C34A2B437F81241408D976E1283885DC0";"00000000010C8D976E1283885DC034A2B437F8124140";1;10/5/2009 00:00:00;18/6/2009 00:00:00
88;453;106;"Store";"Contoso Cedar Park Store";"Contoso Cedar Park Store";"On";26/10/2004 00:00:00;;722;70001;77011;"577-555-0185";"577-555-0185";"Cedar Park, TX St";"Cedar Park, TX St";"";19;455;18/6/2009 00:00:00;"E6100000010CA5BDC11726833E40CDCCCCCCCC7458C0";"00000000010CCDCCCCCCCC7458C0A5BDC11726833E40";1;10/5/2009 00:00:00;18/6/2009 00:00:00
93;787;111;"Store";"Contoso Arlington Store";"Contoso Arlington Store";"On";31/8/2003 00:00:00;;727;75201;75205;"204-555-0115";"204-555-0115";"Central Oaks Shopping mall";"Central Oaks Shopping mall";"";25;700;18/6/2009 00:00:00;"E6100000010CEFC9C342AD714340A69BC420B04653C0";"00000000010CA69BC420B04653C0EFC9C342AD714340";1;10/5/2009 00:00:00;18/6/2009 00:00:00
98;817;116;"Store";"Contoso Denton Store";"Contoso Denton Store";"On";3/5/2003 00:00:00;;732;75201;75210;"913-555-0184";"913-555-0184";"Denton Citycenter Shopping mall";"Denton Citycenter Shopping mall";"";47;1125;18/6/2009 00:00:00;"E6100000010C6DE7FBA9F19A4040DC68006F814858C0";"00000000010CDC68006F814858C06DE7FBA9F19A4040";1;6/7/2009 00:00:00;18/6/2009 00:00:00
103;853;120;"Store";"Contoso Jacksonville Store";"Contoso Jacksonville Store";"On";8/10/2003 00:00:00;;737;32254;32254;"454-555-0119";"454-555-0119";"Lackawanna Park St";"Lackawanna Park St";"";26;680;18/6/2009 00:00:00;"E6100000010C2BF697DD93573E40F46C567DAE6A54C0";"00000000010CF46C567DAE6A54C02BF697DD93573E40";1;10/7/2009 00:00:00;18/6/2009 00:00:00
108;860;124;"Store";"Contoso Lakeland Store";"Contoso Lakeland Store";"On";13/2/2003 00:00:00;;742;33815;33815;"477-555-0132";"477-555-0132";"N Missouri Ave";"N Missouri Ave";"";17;460;18/6/2009 00:00:00;"E6100000010C744694F6060F3C407E1D3867447D54C0";"00000000010C7E1D3867447D54C0744694F6060F3C40";1;10/7/2009 00:00:00;18/6/2009 00:00:00
113;807;129;"Store";"Contoso Cape Canaveral Store";"Contoso Cape Canaveral Store";"On";14/2/2004 00:00:00;;747;32920;32920;"260-555-0119";"260-555-0119";"Astronaut Blvd St";"Astronaut Blvd St";"";33;560;18/6/2009 00:00:00;"E6100000010CF8C264AA60643C406DE7FBA9F12654C0";"00000000010C6DE7FBA9F12654C0F8C264AA60643C40";1;10/12/2008 00:00:00;18/6/2009 00:00:00
118;936;133;"Store";"Contoso Syracuse Store";"Contoso Syracuse Store";"On";16/6/2004 00:00:00;;752;13203;13203;"234-555-0169";"234-555-0169";"520 Pearl St";"520 Pearl St";"";26;680;18/6/2009 00:00:00;"E6100000010C3B70CE88D2864540E10B93A9820953C0";"00000000010CE10B93A9820953C03B70CE88D2864540";1;10/12/2008 00:00:00;18/6/2009 00:00:00
123;852;142;"Store";"Contoso Ithaca Store";"Contoso Ithaca Store";"On";21/11/2004 00:00:00;;757;14850;14850;"361-555-0180";"361-555-0180";"Cascadilla Ave St";"Cascadilla Ave St";"";17;460;18/6/2009 00:00:00;"E6100000010C295C8FC2F538454024B9FC87F41F53C0";"00000000010C24B9FC87F41F53C0295C8FC2F5384540";1;10/12/2008 00:00:00;18/6/2009 00:00:00
128;943;146;"Store";"Contoso Trenton No.1 Store";"Contoso Trenton No.1 Store";"On";26/3/2004 00:00:00;;762;8608;8608;"350-555-0167";"350-555-0167";"241 E State St";"241 E State St";"";33;560;18/6/2009 00:00:00;"E6100000010C787AA52C431C4440DB8AFD65F7B052C0";"00000000010CDB8AFD65F7B052C0787AA52C431C4440";1;10/12/2008 00:00:00;18/6/2009 00:00:00
133;908;149;"Store";"Contoso Paterson Store";"Contoso Paterson Store";"On";3/12/2008 00:00:00;;767;7505;7505;"653-555-0144";"653-555-0144";"Federal Plaza St";"Federal Plaza St";"";26;680;18/6/2009 00:00:00;"E6100000010C4D158C4AEA74444089D2DEE00B8B52C0";"00000000010C89D2DEE00B8B52C04D158C4AEA744440";1;10/7/2009 00:00:00;18/6/2009 00:00:00
138;945;154;"Store";"Contoso Vineland Store";"Contoso Vineland Store";"On";18/5/2004 00:00:00;;772;8360;8360;"984-555-0148";"984-555-0148";"W Cherry St";"W Cherry St";"";22;500;18/6/2009 00:00:00;"E6100000010CF46C567DAEBE434036CD3B4ED1C152C0";"00000000010C36CD3B4ED1C152C0F46C567DAEBE4340";1;10/7/2009 00:00:00;18/6/2009 00:00:00
143;847;159;"Store";"Contoso Hoboken Store";"Contoso Hoboken Store";"On";23/10/2004 00:00:00;;777;7030;7030;"110-555-0182";"110-555-0182";"322 8th St";"322 8th St";"";33;560;18/6/2009 00:00:00;"E6100000010C65AA6054525F44400BB5A679C78152C0";"00000000010C0BB5A679C78152C065AA6054525F4440";1;10/12/2008 00:00:00;18/6/2009 00:00:00
153;846;168;"Store";"Contoso Hingham Store";"Contoso Hingham Store";"On";17/1/2004 00:00:00;;787;2043;2043;"696-555-0157";"696-555-0157";"Crowes Ln St";"Crowes Ln St";"";22;500;18/6/2009 00:00:00;"E6100000010C75931804561E45405B423EE8D9B851C0";"00000000010C5B423EE8D9B851C075931804561E4540";1;10/7/2009 00:00:00;18/6/2009 00:00:00
158;844;173;"Store";"Contoso Haverhill Store";"Contoso Haverhill Store";"On";22/6/2004 00:00:00;;792;1832;1832;"368-555-0113";"368-555-0113";"Hilldale Ave St";"Hilldale Ave St";"";19;455;18/6/2009 00:00:00;"E6100000010C143FC6DCB564454044696FF085C551C0";"00000000010C44696FF085C551C0143FC6DCB5644540";1;6/7/2009 00:00:00;18/6/2009 00:00:00
163;826;178;"Store";"Contoso Falmouth Store";"Contoso Falmouth Store";"On";27/11/2004 00:00:00;;797;2540;2540;"429-555-0137";"429-555-0137";"Shore Citycenter Shopping mall";"Shore Citycenter Shopping mall";"";25;700;18/6/2009 00:00:00;"E6100000010C82E2C798BBC64440C1A8A44E40A751C0";"00000000010CC1A8A44E40A751C082E2C798BBC64440";1;10/7/2009 00:00:00;18/6/2009 00:00:00
168;855;183;"Store";"Contoso Kennebunkport Store";"Contoso Kennebunkport Store";"On";19/2/2004 00:00:00;;802;4046;4046;"587-555-0115";"587-555-0115";"School St";"School St";"";22;500;18/6/2009 00:00:00;"E6100000010CBC0512143FAE45403C4ED1915C9E51C0";"00000000010C3C4ED1915C9E51C0BC0512143FAE4540";1;10/7/2009 00:00:00;18/6/2009 00:00:00
173;801;188;"Store";"Contoso Bridgeport Store";"Contoso Bridgeport Store";"On";18/2/2004 00:00:00;;807;6604;6604;"609-555-0153";"609-555-0153";"Center St";"Center St";"";19;455;18/6/2009 00:00:00;"E6100000010CE25817B7D19844409B559FABAD4C52C0";"00000000010C9B559FABAD4C52C0E25817B7D1984440";1;10/7/2009 00:00:00;18/6/2009 00:00:00
178;864;193;"Store";"Contoso Litchfield County Store";"Contoso Litchfield County Store";"On";23/7/2004 00:00:00;;812;6759;6759;"164-555-0114";"164-555-0114";"CTuDED Rd, Litchfield County";"CTuDED Rd, Litchfield County";"";25;700;18/6/2009 00:00:00;"E6100000010CC4B12E6EA39144403CBD529621CA58C0";"00000000010C3CBD529621CA58C0C4B12E6EA3914440";1;10/5/2009 00:00:00;18/6/2009 00:00:00
183;784;111;"Store";"Contoso Anchorage Store";"Contoso Anchorage Store";"On";2/12/2004 00:00:00;;817;;;"110-555-0115";"110-555-0115";"4800 Spenard Road,Shopping mall";"4800 Spenard Road,Shopping mall";"";47;1125;18/6/2009 00:00:00;"E6100000010C41F163CC5DAB4E40F6285C8FC2BD62C0";"00000000010CF6285C8FC2BD62C041F163CC5DAB4E40";1;10/5/2009 00:00:00;18/6/2009 00:00:00
188;873;202;"Store";"Contoso Martinsville Store";"Contoso Martinsville Store";"On";20/2/2004 00:00:00;;822;24112;24112;"809-555-0133";"809-555-0133";"Monroe St";"Monroe St";"";19;455;18/6/2009 00:00:00;"E6100000010C90A0F831E6B643403B014D840D9B55C0";"00000000010C3B014D840D9B55C090A0F831E6B64340";1;10/5/2009 00:00:00;18/6/2009 00:00:00
193;850;207;"Store";"Contoso Howard Store";"Contoso Howard Store";"On";19/3/2004 00:00:00;;827;21794;21794;"167-555-0139";"167-555-0139";"River Valley Chase St Shopping mall";"River Valley Chase St Shopping mall";"";25;700;18/6/2009 00:00:00;"E6100000010C857CD0B359A5434012A5BDC1173E53C0";"00000000010C12A5BDC1173E53C0857CD0B359A54340";1;6/7/2009 00:00:00;18/6/2009 00:00:00
198;835;77;"Store";"Contoso North Harford Store";"Contoso North Harford Store";"On";24/8/2004 00:00:00;;832;20874;20874;"817-555-0186";"817-555-0186";"Wisteria St Shopping mall";"Wisteria St Shopping mall";"";47;1125;18/6/2009 00:00:00;"E6100000010C2BF697DD934F4340075F984C156C53C0";"E6100000010C075F984C156C53C02BF697DD934F4340";1;10/7/2009 00:00:00;18/6/2009 00:00:00
203;751;221;"Store";"Contoso Glasgow Store";"Contoso Glasgow Store";"On";16/8/2007 00:00:00;;835;;;"289-555-0196";"289-555-0196";"Renfrew St Glasgow, Lanarkshire, Citycenter, United Kingdom";"Renfrew St Glasgow, Lanarkshire, Citycenter, United Kingdom";"";26;680;18/6/2009 00:00:00;"E6100000010CE561A1D634EF4B40F31FD26F5F0711C0";"00000000010CF31FD26F5F0711C0E561A1D634EF4B40";1;10/7/2009 00:00:00;18/6/2009 00:00:00
208;781;226;"Store";"Contoso West Yorkshire Store";"Contoso West Yorkshire Store";"On";21/3/2004 00:00:00;;840;;;"318-555-0137";"318-555-0137";"22 Market Sq Shipley, West Yorkshire, BD18 3QJ, United Kingdom";"22 Market Sq Shipley, West Yorkshire, BD18 3QJ, United Kingdom";"";90;680;18/6/2009 00:00:00;"E6100000010CE09C11A5BD294440C1CAA145B61F55C0";"00000000010CC1CAA145B61F55C0E09C11A5BD294440";1;10/7/2009 00:00:00;18/6/2009 00:00:00
213;753;231;"Store";"Contoso Knotty Ash Store";"Contoso Knotty Ash Store";"On";26/3/2004 00:00:00;;845;;;"785-555-0132";"785-555-0132";"East Prescot Road Knotty Ash, Citycenter, United Kingdom";"East Prescot Road Knotty Ash, Citycenter, United Kingdom";"";24;680;18/6/2009 00:00:00;"E6100000010CE9B7AF03E7B44A40E6577380600E07C0";"00000000010CE6577380600E07C0E9B7AF03E7B44A40";1;10/5/2009 00:00:00;18/6/2009 00:00:00
218;777;236;"Store";"Contoso Toulouse Store";"Contoso Toulouse Store";"On";11/9/2004 00:00:00;;856;31000;31000;"575-555-0126";"575-555-0126";"Citycenter  toulouse, France";"Citycenter  toulouse, France";"";23;680;18/6/2009 00:00:00;"E6100000010C5AF5B9DA8ACD4540CD58349D9D0CF73F";"00000000010CCD58349D9D0CF73F5AF5B9DA8ACD4540";1;10/5/2009 00:00:00;18/6/2009 00:00:00
223;779;241;"Store";"Contoso Venezia Store";"Contoso Venezia Store";"On";6/7/2009 00:00:00;;861;30124;30124;"330-555-2568";"330-555-2568";"";"";"";11;500;18/6/2009 00:00:00;"E6100000010C67D5E76A2B8E48408B6CE7FBA9A95EC0";"00000000010C8B6CE7FBA9A95EC067D5E76A2B8E4840";1;10/5/2009 00:00:00;18/6/2009 00:00:00
228;586;246;"Store";"Contoso Berlin Store";"Contoso Berlin Store";"On";9/10/2008 00:00:00;;866;10178;10178;"730-555-0117";"730-555-0117";"Downtown Berlin, Germany";"Downtown Berlin, Germany";"";13;500;18/6/2009 00:00:00;"E6100000010CEA04341136444A401FF46C567DCE2A40";"00000000010C1FF46C567DCE2A40EA04341136444A40";1;10/5/2009 00:00:00;18/6/2009 00:00:00
233;756;250;"Store";"Contoso Landstuhl Store";"Contoso Landstuhl Store";"On";20/8/2004 00:00:00;;871;66917;66917;"447-555-0186";"447-555-0186";"Citycenter Wallhalben, Germany";"Citycenter Wallhalben, Germany";"";21;500;18/6/2009 00:00:00;"E6100000010C4D158C4AEAB448409ED2C1FA3F471E40";"00000000010C9ED2C1FA3F471E404D158C4AEAB44840";1;10/5/2009 00:00:00;18/6/2009 00:00:00
238;769;255;"Store";"Contoso obamberg Store";"Contoso obamberg Store";"On";27/5/2004 00:00:00;;876;96049;96049;"520-555-0177";"520-555-0177";"Citycenter Bamberg, Germany";"Citycenter Bamberg, Germany";"";29;500;18/6/2009 00:00:00;"E6100000010CDD088B8A38F348409126DE019EC42540";"00000000010C9126DE019EC42540DD088B8A38F34840";1;10/5/2009 00:00:00;18/6/2009 00:00:00
243;760;260;"Store";"Contoso Madrid Store";"Contoso Madrid Store";"On";1/3/2004 00:00:00;;881;28049;28049;"166-555-0156";"166-555-0156";"Alcobendas Shopping mall MADRID, Spain";"Alcobendas Shopping mall MADRID, Spain";"";35;680;18/6/2009 00:00:00;"E6100000010C83C0CAA145364440D252793BC2A90DC0";"00000000010CD252793BC2A90DC083C0CAA145364440";1;6/7/2009 00:00:00;18/6/2009 00:00:00
248;778;265;"Store";"Contoso Valletta Store";"Contoso Valletta Store";"On";19/2/2004 00:00:00;;886;;;"265-555-0195";"265-555-0195";"Citycenter, Fgura, Malta";"Citycenter, Fgura, Malta";"";42;680;18/6/2009 00:00:00;"E6100000010CEBE2361AC0F34140EFC9C342AD092D40";"00000000010CEFC9C342AD092D40EBE2361AC0F34140";1;6/7/2009 00:00:00;18/6/2009 00:00:00
253;558;294;"Store";"Contoso Sydney No.1 Store";"Contoso Sydney No.1 Store";"On";27/6/2005 00:00:00;;890;2000;2000;"203-555-0196";"203-555-0196";"Sydney Citycenter, Australia";"Sydney Citycenter, Australia";"";20;480;18/6/2009 00:00:00;"E6100000010C82734694F6EE40C0B4C876BE9FE66240";"00000000010CB4C876BE9FE6624082734694F6EE40C0";1;10/7/2009 00:00:00;18/6/2009 00:00:00
258;731;272;"Store";"Contoso Thimphu No.1 Store";"Contoso Thimphu No.1 Store";"On";2/7/2009 00:00:00;;895;;;"295-555-0161";"295-555-0161";"Citycenter, Thimphu, Bhutan";"Citycenter, Thimphu, Bhutan";"";35;480;18/6/2009 00:00:00;"E6100000010CD34D621058793B40D42B6519E2685640";"00000000010CD42B6519E2685640D34D621058793B40";1;10/12/2008 00:00:00;18/6/2009 00:00:00
263;764;277;"Store";"Contoso Moscow  No.1 Store";"Contoso Moscow  No.1 Store";"On";7/6/2004 00:00:00;;900;107031;107031;"254-555-0114";"254-555-0114";"Citycenter, Russia";"Citycenter, Russia";"";65;480;18/6/2009 00:00:00;"E6100000010C431CEBE236E24B406744696FF0CD4240";"00000000010C6744696FF0CD4240431CEBE236E24B40";1;10/12/2008 00:00:00;18/6/2009 00:00:00
270;724;283;"Store";"Contoso Osaka No.1 Store";"Contoso Osaka No.1 Store";"On";17/6/2005 00:00:00;;907;39894;39894;"295-555-0161";"295-555-0161";"Downtown,Osaka, Japan";"Downtown,Osaka, Japan";"";80;480;18/6/2009 00:00:00;"E6100000010CA9A44E40135941408716D9CEF7EF6040";"00000000010C8716D9CEF7EF6040A9A44E4013594140";1;10/12/2008 00:00:00;18/6/2009 00:00:00
275;712;288;"Store";"Contoso Busan Store";"Contoso Busan Store";"On";12/7/2006 00:00:00;;912;;;"465-555-0156";"465-555-0156";"Korea Citycenter Namchendong, Suyeong-Gu, Busan";"Korea Citycenter Namchendong, Suyeong-Gu, Busan";"";50;480;18/6/2009 00:00:00;"E6100000010CC74B3789419841400AD7A3703D226040";"00000000010C0AD7A3703D226040C74B378941984140";1;10/12/2008 00:00:00;18/6/2009 00:00:00
277;727;290;"Store";"Contoso Shanghai No.1 Store";"Contoso Shanghai No.1 Store";"On";14/2/2004 00:00:00;;849;201800;201800;"708-555-0141";"708-555-0141";"China Shanghai, Jiading Distrct Yongguang Rd";"China Shanghai, Jiading Distrct Yongguang Rd";"";95;480;18/6/2009 00:00:00;"E6100000010CE71DA7E8483E3F40CBA145B6F35D5E40";"00000000010CCBA145B6F35D5E40E71DA7E8483E3F40";1;10/12/2008 00:00:00;18/6/2009 00:00:00
280;715;293;"Store";"Contoso Guangzhou Store";"Contoso Guangzhou Store";"On";17/7/2009 00:00:00;;852;510000;510000;"124-555-0114";"124-555-0114";"China Guangzhou, Guangdong Tianhe Distrct";"China Guangzhou, Guangdong Tianhe Distrct";"";131;480;18/6/2009 00:00:00;"E6100000010C4A0C022B87263740B81E85EB51505C40";"00000000010CB81E85EB51505C404A0C022B87263740";1;10/12/2008 00:00:00;18/6/2009 00:00:00
281;727;290;"Store";"Contoso Shanghai No.2 Store";"Contoso Shanghai No.2 Store";"On";2/3/2004 00:00:00;;853;201800;201800;"716-555-0127";"716-555-0127";"China Shanghai, Jiading Distrct Yongguang Rd";"China Shanghai, Jiading Distrct Yongguang Rd";"";95;480;18/6/2009 00:00:00;"E6100000010C5917B7D1003E3F40A8C64B3789615E40";"E6100000010CA8C64B3789615E405917B7D1003E3F40";1;10/12/2008 00:00:00;18/6/2009 00:00:00
282;903;214;"Store";"Contoso Ottawa No.1 Store";"ContosoOttawa No.1 Store";"On";9/4/2004 00:00:00;;914;;;"210-555-0193";"210-555-0193";"Elgin Street, Ottawa,  Canada";"Elgin Street, Ottawa,  Canada";"";95;480;18/6/2009 00:00:00;"E6100000010C8104C58F31B74640053411363CED52C0";"00000000010C053411363CED52C08104C58F31B74640";1;10/12/2008 00:00:00;18/6/2009 00:00:00
283;903;214;"Store";"Contoso Ottawa No.2 Store";"ContosoOttawa No.2 Store";"On";15/5/2004 00:00:00;;915;;;"210-555-0193";"210-555-0193";"Carling Avenue, Ottawa, Canada";"Carling Avenue, Ottawa, Canada";"";95;480;18/6/2009 00:00:00;"E6100000010CAB3E575BB1B7464096438B6CE7EF6040";"E6100000010C96438B6CE7EF6040AB3E575BB1B74640";1;10/12/2008 00:00:00;18/6/2009 00:00:00
284;942;215;"Store";"Contoso Toronto No.1 Store";"Contoso Toronto No.1 Store";"On";17/6/2004 00:00:00;;916;;;"210-555-0193";"210-555-0193";"George St, Toronto, Canada";"George St, Toronto, Canada";"";95;480;18/6/2009 00:00:00;"E6100000010C9D8026C286D74540E9482EFF21D953C0";"00000000010CE9482EFF21D953C09D8026C286D74540";1;10/12/2008 00:00:00;18/6/2009 00:00:00
285;942;215;"Store";"Contoso Toronto No.2 Store";"Contoso Toronto No.2 Store";"On";29/7/2003 00:00:00;;917;;;"257-555-0154";"257-555-0154";"Chestnut Street, Toronto, Canada";"Chestnut Street, Toronto, Canada";"";95;480;18/6/2009 00:00:00;"E6100000010C3333333333D3454057EC2FBB27DB53C0";"E6100000010C57EC2FBB27DB53C03333333333D34540";1;10/12/2008 00:00:00;18/6/2009 00:00:00
286;942;215;"Store";"Contoso Toronto No.3 Store";"Contoso Toronto No.3 Store";"On";20/8/2004 00:00:00;;918;;;"883-555-0116";"883-555-0116";"Dundas Street East, Toronto, Canada";"Dundas Street East, Toronto, Canada";"";95;480;18/6/2009 00:00:00;"E6100000010CA4703D0AD7D34540C217265305D753C0";"E6100000010CC217265305D753C0A4703D0AD7D34540";1;10/12/2008 00:00:00;18/6/2009 00:00:00
287;881;216;"Store";"Contoso Montreal No.1 Store";"Contoso Montreal No.1 Store";"On";12/9/2004 00:00:00;;919;;;"517-555-0117";"517-555-0117";"Boulevard Decarie, Montreal Rd, Canada";"Boulevard Decarie, Montreal Rd, Canada";"";95;480;18/6/2009 00:00:00;"E6100000010C1F85EB51B8C64640E2E995B20C6952C0";"00000000010CE2E995B20C6952C01F85EB51B8C64640";1;10/12/2008 00:00:00;18/6/2009 00:00:00
288;881;216;"Store";"Contoso Montreal No.2 Store";"Contoso Montreal No.2 Store";"On";13/2/2003 00:00:00;;920;;;"922-555-0165";"922-555-0165";"De avenue du parc Shopping mall, Montréal, Canada";"De avenue du parc Shopping mall, Montréal, Canada";"";95;480;18/6/2009 00:00:00;"E6100000010C34A2B437F8C2464058A835CD3B6A52C0";"E6100000010C58A835CD3B6A52C034A2B437F8C24640";1;10/12/2008 00:00:00;18/6/2009 00:00:00
289;562;217;"Store";"Contoso Vancouver  No.1 Store";"Contoso Vancouver  No.1 Store";"On";25/11/2004 00:00:00;;921;;;"664-555-0112";"664-555-0112";"Burrard Street, Vancouver, Canada";"Burrard Street, Vancouver, Canada";"";95;480;18/6/2009 00:00:00;"E6100000010C273108AC1CA248401B2FDD2406C95EC0";"00000000010C1B2FDD2406C95EC0273108AC1CA24840";1;10/12/2008 00:00:00;18/6/2009 00:00:00
290;562;217;"Store";"Contoso Vancouver  No.2 Store";"Contoso Vancouver  No.2 Store";"On";26/12/2004 00:00:00;;922;;;"340-555-0193";"340-555-0193";"Johnston Street, Vancouver, Canada";"Johnston Street, Vancouver, Canada";"";95;480;18/6/2009 00:00:00;"E6100000010CB6847CD0B3A14840B4C876BE9FCA5EC0";"E6100000010CB4C876BE9FCA5EC0B6847CD0B3A14840";1;10/12/2008 00:00:00;18/6/2009 00:00:00
291;598;218;"Store";"Contoso Calgary  Store";"Contoso Calgary  Store";"On";27/5/2004 00:00:00;;923;;;"330-555-0120";"330-555-0120";"209 4 Avenue Se, Calgary, Canada";"209 4 Avenue Se, Calgary, Canada";"";95;480;18/6/2009 00:00:00;"E6100000010C728A8EE4F28749404E62105839845CC0";"00000000010C4E62105839845CC0728A8EE4F2874940";1;10/12/2008 00:00:00;18/6/2009 00:00:00
292;731;272;"Store";"Contoso Thimphu No.2 Store";"Contoso Thimphu No.2 Store";"On";28/2/2006 00:00:00;;924;;;"185-555-0169";"185-555-0169";"Clock Tower Shooping mall, Thimphu, Bhutan";"Clock Tower Shooping mall, Thimphu, Bhutan";"";95;480;18/6/2009 00:00:00;"E6100000010CD49AE61DA7783B40D42B6519E2685640";"E6100000010CD42B6519E2685640D49AE61DA7783B40";1;10/12/2008 00:00:00;18/6/2009 00:00:00
293;716;273;"Store";"Contoso Hong Kong No.2 Store";"Contoso Hong Kong No.2 Store";"On";29/3/2007 00:00:00;;925;;;"740-555-0182";"740-555-0182";"Hong Kong, Kowloon Shopping mall";"Hong Kong, Kowloon Shopping mall";"";95;480;18/6/2009 00:00:00;"E6100000010C36CD3B4ED1513640AE47E17A148E5C40";"E6100000010CAE47E17A148E5C4036CD3B4ED1513640";1;10/12/2008 00:00:00;18/6/2009 00:00:00
294;730;274;"Store";"Contoso Tehran No.2 Store";"Contoso Tehran No.2 Store";"On";30/4/2004 00:00:00;;926;1698556;1698565;"775-555-0164";"775-555-0164";"Seyfiyeh Davoodiyeh,second street, Tehran, Tehran, Iran";"Seyfiyeh Davoodiyeh,second street, Tehran, Tehran, Iran";"";95;480;18/6/2009 00:00:00;"E6100000010CBA6B09F9A0D7414096B20C71ACB34940";"E6100000010C96B20C71ACB34940BA6B09F9A0D74140";1;10/12/2008 00:00:00;18/6/2009 00:00:00
295;714;275;"Store";"Contoso Damascus No.2 Store";"Contoso Damascus No.2 Store";"On";31/5/2004 00:00:00;;927;36805;36805;"1 (11) 500 555-";"1 (11) 500 555";"19th Nissan Street, Mezze Damascus, Syria";"19th Nissan Street, Mezze Damascus, Syria";"";95;480;18/6/2009 00:00:00;"E6100000010C34A2B437F8C24040A9A44E4013294240";"E6100000010CA9A44E401329424034A2B437F8C24040";1;10/12/2008 00:00:00;18/6/2009 00:00:00
296;709;276;"Store";"Contoso Bangkok No.2 Store";"Contoso Bangkok No.2 Store";"On";1/6/2005 00:00:00;;928;15210;15210;"1 (11) 500 555-";"1 (11) 500 555";"Bangkok Citycenter, Thailand";"Bangkok Citycenter, Thailand";"";95;480;18/6/2009 00:00:00;"E6100000010CDBF97E6ABC942B40105839B4C81E5940";"E6100000010C105839B4C81E5940DBF97E6ABC942B40";1;10/12/2008 00:00:00;18/6/2009 00:00:00
297;764;277;"Store";"Contoso Moscow  No.2 Store";"Contoso Moscow  No.2 Store";"On";2/7/2004 00:00:00;;929;107561;107561;"615-555-0153";"615-555-0153";"Russia, 107561 District shopping mall";"Russia, 107561 District shopping mall";"";95;480;18/6/2009 00:00:00;"E6100000010CD0B359F5B9E24B40C9E53FA4DFCE4240";"E6100000010CC9E53FA4DFCE4240D0B359F5B9E24B40";1;10/12/2008 00:00:00;18/6/2009 00:00:00
298;708;278;"Store";"Contoso Ashgabat  No.2 Store";"Contoso Ashgabat  No.2 Store";"On";6/11/2006 00:00:00;;930;789000;789000;"926-555-0182";"926-555-0182";"West Street, Turkmenistan";"West Street, Turkmenistan";"";95;480;18/6/2009 00:00:00;"E6100000010CC5FEB27BF200434074B515FBCB2E4D40";"E6100000010C74B515FBCB2E4D40C5FEB27BF2004340";1;10/12/2008 00:00:00;18/6/2009 00:00:00
299;717;279;"Store";"Contoso Islamabad  No.2 Store";"Contoso Islamabad  No.2 Store";"On";7/12/2007 00:00:00;;931;15890;15890;"1 (11) 500 555-";"1 (11) 500 555";"Citycenter, Islamabad Capital Territory, Pakistan";"Citycenter, Islamabad Capital Territory, Pakistan";"";95;480;18/6/2009 00:00:00;"E6100000010CB003E78C28DD4040B1506B9A77445240";"E6100000010CB1506B9A77445240B003E78C28DD4040";1;10/12/2008 00:00:00;18/6/2009 00:00:00
300;558;294;"Store";"Contoso Sydney  No.2 Store";"Contoso Sydney  No.2 Store";"On";18/3/2004 00:00:00;;932;59000;60000;"1 (11) 500 555-";"1 (11) 500 555";"PT St Sydney, Australia";"PT St Sydney, Australia";"";95;480;18/6/2009 00:00:00;"E6100000010C64CC5D4BC8EF40C0C976BE9F1AE76240";"E6100000010CC976BE9F1AE7624064CC5D4BC8EF40C0";1;10/12/2008 00:00:00;18/6/2009 00:00:00
301;724;283;"Store";"Contoso Osaka No.2 Store";"Contoso Osaka No.2 Store";"On";19/3/2007 00:00:00;;933;89094;89094;"380-558-0193";"380-558-0193";"Citycenter, BigOne Rd-KuOsakaOsaka, Japan";"Citycenter, BigOne Rd-KuOsakaOsaka, Japan";"";95;480;18/6/2009 00:00:00;"E6100000010C6891ED7C3F55414096438B6CE7EF6040";"E6100000010C96438B6CE7EF60406891ED7C3F554140";1;10/12/2008 00:00:00;18/6/2009 00:00:00
302;729;24;"Store";"Contoso Taipei  Store";"Contoso Taipei  Store";"On";19/7/2004 00:00:00;;935;109807;109807;"830-555-0128";"830-555-0128";"Leidui Shopping mall, Taipei, Taiwan";"Leidui Shopping mall, Taipei, Taiwan";"";95;480;18/6/2009 00:00:00;"E6100000010C0DE02D90A0183940C1CAA145B6635E40";"00000000010CC1CAA145B6635E400DE02D90A0183940";1;10/12/2008 00:00:00;18/6/2009 00:00:00
303;757;25;"Store";"Contoso Lisbon Store";"Contoso Lisbon Store";"On";20/9/2004 00:00:00;;936;189076;189076;"290-666-8960";"290-666-8960";"Lisbon Citycenter, Lisboa Region";"Lisbon Citycenter, Lisboa Region";"";95;480;18/6/2009 00:00:00;"E6100000010CFBCBEEC9C35A4340828B1535984622C0";"00000000010C828B1535984622C0FBCBEEC9C35A4340";1;10/12/2008 00:00:00;18/6/2009 00:00:00
199;800;212;"Online";"Contoso North America Online Store";"Contoso Online Store";"On";25/8/2004 00:00:00;;59;20817;20817;"450-555-0152";"450-555-0152";"Marbury St Shopping mall";"Marbury St Shopping mall";"";325;500;16/6/2009 00:00:00;"E6100000010CC9E53FA4DF7E43404F401361C34753C0";"00000000010C4F401361C34753C0C9E53FA4DF7E4340";1;10/7/2009 00:00:00;16/6/2009 00:00:00
200;894;213;"Catalog";"Contoso Catalog Store";"Contoso Catalog Store";"On";26/10/2004 00:00:00;;58;21234;21234;"278-555-0118";"278-555-0118";"North Harford St Shopping mall";"North Harford St Shopping mall";"";120;462;17/6/2009 00:00:00;"E6100000010CB3EA73B515CB43404182E2C7981753C0";"00000000010C4182E2C7981753C0B3EA73B515CB4340";1;10/7/2009 00:00:00;17/6/2009 00:00:00
306;586;246;"Online";"Contoso Europe Online Store";"Contoso Europe Online Store";"On";3/9/2004 00:00:00;;945;10178;10178;"731-555-0117";"731-555-0117";"Downtown Berlin, Germany";"Downtown Berlin, Germany";"";7;1000;18/6/2009 00:00:00;"E6100000010C93A9825149454A40772D211FF4CC2A40";"E6100000010C772D211FF4CC2A4093A9825149454A40";1;3/4/2009 00:00:00;3/4/2009 00:00:00
307;710;292;"Online";"Contoso Asia Online Store";"Contoso Asia Online Store";"On";11/10/2004 00:00:00;;946;10093;10093;"55-555-0117";"55-555-0117";"China Beijing Chaoyang distrct Shanlitun Rd";"China Beijing Chaoyang distrct Shanlitun Rd";"";8;93800;18/6/2009 00:00:00;"E6100000010C2497FF907EFB434008AC1C5A64135D40";"E6100000010C08AC1C5A64135D402497FF907EFB4340";1;3/4/2009 00:00:00;3/4/2009 00:00:00
308;693;35;"Reseller";"Contoso North America Reseller";"Contoso North America Reseller";"On";8/3/2004 00:00:00;;947;56535;56535;"55-555-0118";"55-555-0118";"Seattle Shopping Mall";"Seattle Shopping Mall";"";15;450;5/6/2008 00:00:00;"E6100000010C3BDF4F8D97CE47403108AC1C5A945EC0";"E6100000010C3108AC1C5A945EC03BDF4F8D97CE4740";1;3/4/2009 00:00:00;3/4/2009 00:00:00
309;529;233;"Reseller";"Contoso Europe Reseller";"Contoso Europe Reseller";"On";7/5/2004 00:00:00;;948;535455;535455;"55-555-0119";"55-555-0119";"France Shopping Mall";"France Shopping Mall";"";12;551;5/6/2008 00:00:00;"E6100000010C3BDF4F8D976E4840016A6AD95ADF0240";"E6100000010C016A6AD95ADF02403BDF4F8D976E4840";1;3/4/2009 00:00:00;3/4/2009 00:00:00
310;710;292;"Reseller";"Contoso Asia Reseller";"Contoso Asia Reseller";"On";15/7/2004 00:00:00;;949;25536;25536;"55-555-0120";"55-555-0120";"Beijing Shopping Mall";"Beijing Shopping Mall";"";17;93800;5/11/2008 00:00:00;"E6100000010C2DB29DEFA7F64340DD240681951B5D40";"E6100000010CDD240681951B5D402DB29DEFA7F64340";1;3/4/2009 00:00:00;3/4/2009 00:00:00
12;893;45;"Store";"Contoso North Bend Store";"Contoso North Bend Store";"Off";21/11/2004 00:00:00;12/4/2009 00:00:00;646;97001;97012;"206-555-0180";"206-555-0180";"North Bend, Citycenter";"North Bend, Citycenter";"Relocation";19;455;17/6/2009 00:00:00;"E6100000010C9D8026C286BF4740EE7C3F355E725EC0";"00000000010CEE7C3F355E725EC09D8026C286BF4740";1;25/5/2009 00:00:00;25/5/2009 00:00:00
19;812;51;"Store";"Contoso Cheney Store";"Contoso Cheney Store";"Off";28/8/2004 00:00:00;12/5/2009 00:00:00;653;97001;97019;"328-555-0150";"328-555-0150";"Cheney DownTown Shopping mall";"Cheney DownTown Shopping mall";"Store";19;455;16/6/2009 00:00:00;"E6100000010CCAC342AD69BE4740B0726891ED645DC0";"00000000010CB0726891ED645DC0CAC342AD69BE4740";1;10/7/2009 00:00:00;16/6/2009 00:00:00
29;927;61;"Store";"Contoso Sedalia Store";"Contoso Sedalia Store";"Off";20/7/2004 00:00:00;12/7/2009 00:00:00;663;87001;87010;"147-555-0160";"147-555-0160";"N Plum Ave St";"N Plum Ave St";"Relocation";47;1125;16/6/2009 00:00:00;"E6100000010C35EF3845475A434089D2DEE00B4F57C0";"00000000010C89D2DEE00B4F57C035EF3845475A4340";1;10/5/2009 00:00:00;16/6/2009 00:00:00
48;878;75;"Store";"Contoso Milwaukee No.2 Store";"Contoso Milwaukee No.2 Store";"Off";9/2/2004 00:00:00;12/5/2009 00:00:00;682;54001;54008;"399-555-0176";"399-555-0176";"Riverwest St";"Riverwest St";"Relocation";25;700;18/6/2009 00:00:00;"E6100000010C1B2FDD2406894540B515FBCBEEF955C0";"E6100000010CB515FBCBEEF955C01B2FDD2406894540";1;6/7/2009 00:00:00;18/6/2009 00:00:00
62;934;84;"Store";"Contoso Stoughton Store";"Contoso Stoughton Store";"Off";30/4/2004 00:00:00;12/7/2009 00:00:00;696;54001;54022;"602-555-0194";"602-555-0194";"Stoughton, Citycenter";"Stoughton, Citycenter";"Relocation";17;462;17/6/2009 00:00:00;"E6100000010CF2D24D6210104540D881734694C651C0";"00000000010CD881734694C651C0F2D24D6210104540";1;10/7/2009 00:00:00;17/6/2009 00:00:00
84;851;102;"Store";"Contoso Humble Store";"Contoso Humble Store";"Off";22/6/2004 00:00:00;12/2/2009 00:00:00;718;70001;77004;"373-555-0137";"373-555-0137";"Humble, TXd Shopping mall";"Humble, TXd Shopping mall";"Relocation";22;500;16/6/2009 00:00:00;"E6100000010CF697DD9387B54340151DC9E53F3C53C0";"00000000010C151DC9E53F3C53C0F697DD9387B54340";1;10/5/2009 00:00:00;16/6/2009 00:00:00
112;857;128;"Store";"Contoso Key West Store";"Contoso Key West Store";"Off";12/1/2004 00:00:00;2/7/2009 00:00:00;746;33040;33040;"637-555-0120";"637-555-0120";"N Roosevelt Blvd St";"N Roosevelt Blvd St";"Relocation";19;455;17/6/2009 00:00:00;"E6100000010C39B4C876BE8F3840D9CEF753E37154C0";"00000000010CD9CEF753E37154C039B4C876BE8F3840";1;10/12/2008 00:00:00;17/6/2009 00:00:00
119;805;134;"Store";"Contoso Buffalo Store";"Contoso Buffalo Store";"Off";2/7/2004 00:00:00;22/9/2008 00:00:00;753;14203;14203;"185-555-0186";"185-555-0186";"Buffalo Citycenter";"Buffalo Citycenter";"Store";19;455;16/6/2009 00:00:00;"E6100000010C99BB96900F724540787AA52C43B853C0";"00000000010C787AA52C43B853C099BB96900F724540";1;10/12/2008 00:00:00;16/6/2009 00:00:00
129;943;146;"Store";"Contoso Trenton No.2 Store";"Contoso Trenton No.2 Store";"Off";27/7/2004 00:00:00;12/12/2008 00:00:00;763;8608;8608;"241-555-0191";"241-555-0191";"202 S Feeder St";"202 S Feeder St";"Relocation";47;1125;16/6/2009 00:00:00;"E6100000010CECC039234A1B44408E06F01648B052C0";"E6100000010C8E06F01648B052C0ECC039234A1B4440";1;10/12/2008 00:00:00;16/6/2009 00:00:00
148;952;163;"Store";"Contoso Worcester No.2 Store";"Contoso Worcester No.2 Store";"Off";18/2/2004 00:00:00;12/7/2009 00:00:00;782;1608;1608;"118-555-0110";"118-555-0110";"Humboldt Ave";"Humboldt Ave";"Relocation";25;700;18/6/2009 00:00:00;"E6100000010C454772F90F2145408FE4F21FD2F351C0";"E6100000010C8FE4F21FD2F351C0454772F90F214540";1;10/12/2008 00:00:00;18/6/2009 00:00:00
162;909;177;"Store";"Contoso Pittsfield Store";"Contoso Pittsfield Store";"Off";26/10/2004 00:00:00;12/7/2009 00:00:00;796;1201;1201;"173-555-0179";"173-555-0179";"Columbus Ave";"Columbus Ave";"Relocation";17;462;17/6/2009 00:00:00;"E6100000010CD49AE61DA7604440CF66D5E76A7F52C0";"00000000010CCF66D5E76A7F52C0D49AE61DA7604440";1;10/7/2009 00:00:00;17/6/2009 00:00:00
184;783;198;"Store";"Contoso Alexandria Store";"Contoso Alexandria Store";"Off";6/11/2004 00:00:00;12/7/2009 00:00:00;818;22302;22302;"822-555-0145";"822-555-0145";"Kingsgate St Shopping mall";"Kingsgate St Shopping mall";"Relocation";22;500;16/6/2009 00:00:00;"E6100000010C26E4839ECD6A434004560E2DB24553C0";"00000000010C04560E2DB24553C026E4839ECD6A4340";1;10/5/2009 00:00:00;16/6/2009 00:00:00
